{
"type": "FeatureCollection",
"name": "ECHELLE1_PERIMETRE",
"crs": { "type": "name", "properties": { "name": "urn:ogc:def:crs:OGC:1.3:CRS84" } },
"features": [
{ "type": "Feature", "properties": { "id": 0 }, "geometry": { "type": "MultiPolygon", "coordinates": [ [ [ [ 2.024387723191606, 48.94498421279642 ], [ 2.026831979267778, 48.945858083456926 ], [ 2.027236069990047, 48.946123478183573 ], [ 2.029778884778968, 48.947016747624581 ], [ 2.029749317165143, 48.947075003771822 ], [ 2.031387070238156, 48.947651895339298 ], [ 2.031815579038717, 48.94745722287859 ], [ 2.031650364980078, 48.947284034182815 ], [ 2.031690686830887, 48.947266370547815 ], [ 2.031837518849631, 48.947283210340608 ], [ 2.033098290251475, 48.946744013008747 ], [ 2.032832048902341, 48.946498406514202 ], [ 2.033556147445068, 48.946172025846714 ], [ 2.030942185585381, 48.944321820777049 ], [ 2.030924013822718, 48.944303311299819 ], [ 2.031005324760737, 48.943950112746428 ], [ 2.031045980229746, 48.943357801657598 ], [ 2.030983149050368, 48.943117476711009 ], [ 2.029549119779872, 48.942593127355977 ], [ 2.03022917489784, 48.941588109026718 ], [ 2.028613790839588, 48.940984927849748 ], [ 2.029098625927545, 48.940304425579846 ], [ 2.02997785018033, 48.940595208726727 ], [ 2.030059161118348, 48.940495674844513 ], [ 2.029157348896696, 48.94016308457887 ], [ 2.029726525462821, 48.939351020932456 ], [ 2.03124925757479, 48.93992395809132 ], [ 2.032443049982961, 48.94053087587433 ], [ 2.032502337093052, 48.940578948190016 ], [ 2.031814124639771, 48.941103699052427 ], [ 2.03206052831254, 48.941269687573417 ], [ 2.03221947112471, 48.941287003508116 ], [ 2.032917308887507, 48.940731047571596 ], [ 2.034964613049444, 48.939158017315457 ], [ 2.034990484711541, 48.939126456904567 ], [ 2.033327306433904, 48.938961371353201 ], [ 2.032092858556725, 48.938752585903366 ], [ 2.032059594991172, 48.938718597491658 ], [ 2.031959804294513, 48.938718597491658 ], [ 2.03071426856215, 48.938449117122559 ], [ 2.027391607958604, 48.937589683523989 ], [ 2.025212008197431, 48.937174986650852 ], [ 2.022010302242517, 48.939842630547666 ], [ 2.023058283437385, 48.940375114702846 ], [ 2.023519315445318, 48.939996384943875 ], [ 2.023972852610129, 48.940214065712311 ], [ 2.023484986982022, 48.940634051163478 ], [ 2.023573689823496, 48.940677748868723 ], [ 2.024050467596418, 48.940255336115534 ], [ 2.024594968033105, 48.94058333340076 ], [ 2.024173590606568, 48.940935664609292 ], [ 2.025154567127287, 48.941506780781879 ], [ 2.025961361103643, 48.94194513843776 ], [ 2.026842420019686, 48.942372015478064 ], [ 2.027143979192823, 48.942517873061277 ], [ 2.02691852613741, 48.943702508146387 ], [ 2.026774384020015, 48.943780188153148 ], [ 2.025946490832924, 48.943428199655109 ], [ 2.024390495155402, 48.944986640236102 ], [ 2.024387723191606, 48.94498421279642 ] ] ] ] } }
]
}
