{
"type": "FeatureCollection",
"name": "ECHELLE__2__LOTS",
"crs": { "type": "name", "properties": { "name": "urn:ogc:def:crs:OGC:1.3:CRS84" } },
"features": [
{ "type": "Feature", "properties": { "id": 1, "ilot_id": "A1", "CLE_PRIMAIRE": 1, "CLE_PRIM_1": 1 }, "geometry": { "type": "MultiPolygon", "coordinates": [ [ [ [ 2.028225945065735, 48.944278767890687 ], [ 2.029225839345761, 48.943500414049453 ], [ 2.028752800617572, 48.94335662367282 ], [ 2.028670235527502, 48.94347380660345 ], [ 2.028571094871914, 48.943614514529052 ], [ 2.028485502012844, 48.943735994077116 ], [ 2.028324122184217, 48.943815529860352 ], [ 2.028238525255368, 48.943937006666708 ], [ 2.028061741715973, 48.944187892065933 ], [ 2.028225945065738, 48.944278767890687 ], [ 2.028225945065735, 48.944278767890687 ] ] ] ] } },
{ "type": "Feature", "properties": { "id": 3, "ilot_id": "B1", "CLE_PRIMAIRE": 3, "CLE_PRIM_1": 3 }, "geometry": { "type": "MultiPolygon", "coordinates": [ [ [ [ 2.025612154169055, 48.94547479699898 ], [ 2.026673002546766, 48.945850426417309 ], [ 2.026735059765206, 48.945774809833196 ], [ 2.026641629642451, 48.945280638132587 ], [ 2.025979940674926, 48.944997399540554 ], [ 2.025575517035834, 48.94539056656 ], [ 2.025612154169055, 48.94547479699898 ] ] ] ] } },
{ "type": "Feature", "properties": { "id": 4, "ilot_id": "B2", "CLE_PRIMAIRE": 4, "CLE_PRIM_1": 4 }, "geometry": { "type": "MultiPolygon", "coordinates": [ [ [ [ 2.026042701881568, 48.944936384934934 ], [ 2.026663694154772, 48.945202126146128 ], [ 2.027086948857002, 48.945162312528844 ], [ 2.026987754475365, 48.944742497734516 ], [ 2.026807703201576, 48.944633042817031 ], [ 2.026752591076813, 48.944599539573304 ], [ 2.026503689539356, 48.944488223958849 ], [ 2.026042701881568, 48.944936384934934 ] ] ] ] } },
{ "type": "Feature", "properties": { "id": 5, "ilot_id": "B3", "CLE_PRIMAIRE": 5, "CLE_PRIM_1": 5 }, "geometry": { "type": "MultiPolygon", "coordinates": [ [ [ [ 2.026566490264751, 48.9444271703113 ], [ 2.026817743802719, 48.944539388410789 ], [ 2.026983652562966, 48.944634087060592 ], [ 2.027465970346734, 48.944586254709826 ], [ 2.027354551477752, 48.944088186336629 ], [ 2.027049922369977, 48.943957184491538 ], [ 2.026566490264751, 48.9444271703113 ] ] ] ] } },
{ "type": "Feature", "properties": { "id": 6, "ilot_id": "Groupe sco", "CLE_PRIMAIRE": 6, "CLE_PRIM_1": 6 }, "geometry": { "type": "MultiPolygon", "coordinates": [ [ [ [ 2.027804069662096, 48.940733403220214 ], [ 2.028613790839588, 48.940984927849748 ], [ 2.029096087562792, 48.940305798981107 ], [ 2.028578924250708, 48.940136094808956 ], [ 2.027978715175218, 48.940152188273444 ], [ 2.02799657118748, 48.940442716582041 ], [ 2.02778769229378, 48.940447193533664 ], [ 2.027804069662096, 48.940733403220214 ] ] ] ] } },
{ "type": "Feature", "properties": { "id": 8, "ilot_id": "H2", "CLE_PRIMAIRE": 8, "CLE_PRIM_1": 8 }, "geometry": { "type": "MultiPolygon", "coordinates": [ [ [ [ 2.028786703330986, 48.939897603822388 ], [ 2.029174046901299, 48.940017599290314 ], [ 2.029661769308584, 48.939342422778566 ], [ 2.029279326267094, 48.939215560585005 ], [ 2.028786703330986, 48.939897603822388 ] ] ] ] } },
{ "type": "Feature", "properties": { "id": 9, "ilot_id": "L1", "CLE_PRIMAIRE": 9, "CLE_PRIM_1": 9 }, "geometry": { "type": "MultiPolygon", "coordinates": [ [ [ [ 2.026842420019686, 48.942372015478064 ], [ 2.02722244116805, 48.94236240784825 ], [ 2.027196620401624, 48.941921695960744 ], [ 2.026897229140792, 48.941818764204363 ], [ 2.026240287221831, 48.941836307906399 ], [ 2.026049999591289, 48.941990492073742 ], [ 2.026842420019686, 48.942372015478064 ] ] ] ] } },
{ "type": "Feature", "properties": { "id": 10, "ilot_id": "L1'", "CLE_PRIMAIRE": 10, "CLE_PRIM_1": 10 }, "geometry": { "type": "MultiPolygon", "coordinates": [ [ [ [ 2.025961361103643, 48.94194513843776 ], [ 2.026184992445077, 48.941763936681561 ], [ 2.027087688617193, 48.941739998608384 ], [ 2.027051250478934, 48.941094354212694 ], [ 2.025940577881745, 48.94112283981314 ], [ 2.025394491274177, 48.94158200010127 ], [ 2.025394492140452, 48.941637876765448 ], [ 2.025961361103643, 48.94194513843776 ] ] ] ] } },
{ "type": "Feature", "properties": { "id": 11, "ilot_id": "L10", "CLE_PRIMAIRE": 11, "CLE_PRIM_1": 11 }, "geometry": { "type": "MultiPolygon", "coordinates": [ [ [ [ 2.0231404329093, 48.939660031123658 ], [ 2.023980038512688, 48.940114093948615 ], [ 2.024064419806147, 48.94010670023156 ], [ 2.024699405054852, 48.939566952247688 ], [ 2.024689563667278, 48.9395094696619 ], [ 2.023877178101966, 48.939070093371043 ], [ 2.023820798168577, 48.939073609151492 ], [ 2.023140432167561, 48.939612169203521 ], [ 2.023140389453522, 48.939658872971165 ], [ 2.0231404329093, 48.939660031123658 ] ] ] ] } },
{ "type": "Feature", "properties": { "id": 12, "ilot_id": "L11", "CLE_PRIMAIRE": 12, "CLE_PRIM_1": 12 }, "geometry": { "type": "MultiPolygon", "coordinates": [ [ [ [ 2.024878060860864, 48.939456144540898 ], [ 2.024966588238644, 48.939344395057589 ], [ 2.025389820210182, 48.938741352231297 ], [ 2.024732352049206, 48.938384234419281 ], [ 2.024688141956927, 48.938388530929799 ], [ 2.02398835725218, 48.938940973826924 ], [ 2.023993848211014, 48.938977868182128 ], [ 2.024878060860864, 48.939456144540898 ] ] ] ] } },
{ "type": "Feature", "properties": { "id": 14, "ilot_id": "L2-3", "CLE_PRIMAIRE": 14, "CLE_PRIM_1": 14 }, "geometry": { "type": "MultiPolygon", "coordinates": [ [ [ [ 2.026090583698162, 48.941045148383999 ], [ 2.026946957386121, 48.941023184758819 ], [ 2.026902151395296, 48.940265133730215 ], [ 2.026747783869213, 48.940212148575995 ], [ 2.026054421385947, 48.940229931672427 ], [ 2.026089356453329, 48.941017488249891 ], [ 2.026090583698162, 48.941045148383999 ] ] ] ] } },
{ "type": "Feature", "properties": { "id": 16, "ilot_id": "L4", "CLE_PRIMAIRE": 16, "CLE_PRIM_1": 16 }, "geometry": { "type": "MultiPolygon", "coordinates": [ [ [ [ 2.026051057649831, 48.940156172422405 ], [ 2.026797451854288, 48.940137014495193 ], [ 2.026752974038468, 48.93938434333829 ], [ 2.026148815168347, 48.939129305750548 ], [ 2.026069609527083, 48.939149735794963 ], [ 2.026012448733451, 48.939302304833198 ], [ 2.026051057649831, 48.940156172422405 ] ] ] ] } },
{ "type": "Feature", "properties": { "id": 17, "ilot_id": "L5", "CLE_PRIMAIRE": 17, "CLE_PRIM_1": 17 }, "geometry": { "type": "MultiPolygon", "coordinates": [ [ [ [ 2.024871171516514, 48.938268348899243 ], [ 2.025508052703437, 48.938621475306427 ], [ 2.025992885191195, 48.938229761175847 ], [ 2.026346951523407, 48.938186162734588 ], [ 2.026204422168551, 48.937686719257464 ], [ 2.02585897878601, 48.937507520864287 ], [ 2.02579348928862, 48.937512328211 ], [ 2.024868905287841, 48.938243944992109 ], [ 2.024870643638058, 48.93826780122712 ], [ 2.024871171516514, 48.938268348899243 ] ] ] ] } },
{ "type": "Feature", "properties": { "id": 18, "ilot_id": "L5'", "CLE_PRIMAIRE": 18, "CLE_PRIM_1": 18 }, "geometry": { "type": "MultiPolygon", "coordinates": [ [ [ [ 2.025573853691447, 48.938649541773174 ], [ 2.026047773040854, 48.938902921129149 ], [ 2.026047773040854, 48.938902921129149 ], [ 2.026443853743931, 48.939077341654212 ], [ 2.026619755917417, 48.939063420944265 ], [ 2.026490559985297, 48.938384863382915 ], [ 2.026035816722675, 48.938282502656222 ], [ 2.025573853691447, 48.938649541773174 ] ] ] ] } },
{ "type": "Feature", "properties": { "id": 19, "ilot_id": "L6b", "CLE_PRIMAIRE": 19, "CLE_PRIM_1": 19 }, "geometry": { "type": "MultiPolygon", "coordinates": [ [ [ [ 2.022975706439034, 48.93961043130237 ], [ 2.023717460260493, 48.93902327726002 ], [ 2.023353698527601, 48.938826535437173 ], [ 2.022637862664543, 48.939427805281845 ], [ 2.022975706439034, 48.93961043130237 ] ] ] ] } },
{ "type": "Feature", "properties": { "id": 20, "ilot_id": "L6c", "CLE_PRIMAIRE": 20, "CLE_PRIM_1": 20 }, "geometry": { "type": "MultiPolygon", "coordinates": [ [ [ [ 2.023717460260493, 48.93902327726002 ], [ 2.024522487568032, 48.938386019080902 ], [ 2.024132282940389, 48.938172175995192 ], [ 2.023353698527601, 48.938826535437173 ], [ 2.023717460260493, 48.93902327726002 ] ] ] ] } },
{ "type": "Feature", "properties": { "id": 21, "ilot_id": "L6d", "CLE_PRIMAIRE": 21, "CLE_PRIM_1": 21 }, "geometry": { "type": "MultiPolygon", "coordinates": [ [ [ [ 2.024522487568032, 48.938386019080902 ], [ 2.025661902549862, 48.937484071885606 ], [ 2.02524575441992, 48.93723280554488 ], [ 2.024132282940389, 48.938172175995192 ], [ 2.024522487568032, 48.938386019080902 ] ] ] ] } },
{ "type": "Feature", "properties": { "id": 22, "ilot_id": "L7", "CLE_PRIMAIRE": 22, "CLE_PRIM_1": 22 }, "geometry": { "type": "MultiPolygon", "coordinates": [ [ [ [ 2.023058283437385, 48.940375114702853 ], [ 2.023519315445319, 48.939996384943875 ], [ 2.023049643765641, 48.939742291043707 ], [ 2.022976046332065, 48.939742291888855 ], [ 2.022571754574556, 48.940062315154663 ], [ 2.02257932964746, 48.940115035091459 ], [ 2.023058283437385, 48.940375114702853 ] ] ] ] } },
{ "type": "Feature", "properties": { "id": 23, "ilot_id": "L8", "CLE_PRIMAIRE": 23, "CLE_PRIM_1": 23 }, "geometry": { "type": "MultiPolygon", "coordinates": [ [ [ [ 2.024147849059131, 48.940957588888608 ], [ 2.025154567127287, 48.941506780781893 ], [ 2.025197924020104, 48.941504001794442 ], [ 2.025607046025734, 48.941172105114553 ], [ 2.025598173002493, 48.941125127795658 ], [ 2.024590221611604, 48.940580766097213 ], [ 2.024147849059131, 48.940957588888608 ] ] ] ] } },
{ "type": "Feature", "properties": { "id": 24, "ilot_id": "L9'", "CLE_PRIMAIRE": 24, "CLE_PRIM_1": 24 }, "geometry": { "type": "MultiPolygon", "coordinates": [ [ [ [ 2.024216663870861, 48.940223782258734 ], [ 2.025690857553582, 48.941019953604545 ], [ 2.025829535264956, 48.940909170259616 ], [ 2.025849362636511, 48.940794570667961 ], [ 2.025829914313658, 48.940235689742785 ], [ 2.025191625291877, 48.940252060328604 ], [ 2.024539193567791, 48.939899200147572 ], [ 2.024207648691742, 48.940180977401113 ], [ 2.024216663870861, 48.940223782258734 ] ] ] ] } },
{ "type": "Feature", "properties": { "id": 25, "ilot_id": "L9", "CLE_PRIMAIRE": 25, "CLE_PRIM_1": 25 }, "geometry": { "type": "MultiPolygon", "coordinates": [ [ [ [ 2.025229999122492, 48.940177230641154 ], [ 2.025826563250682, 48.940161930176231 ], [ 2.025815944640079, 48.93992820537494 ], [ 2.024933769412329, 48.939624897202627 ], [ 2.024843844859487, 48.939640278391138 ], [ 2.024607922915823, 48.939840787442918 ], [ 2.025229999122492, 48.940177230641154 ] ] ] ] } },
{ "type": "Feature", "properties": { "id": 28, "ilot_id": "P2", "CLE_PRIMAIRE": 28, "CLE_PRIM_1": 28 }, "geometry": { "type": "MultiPolygon", "coordinates": [ [ [ [ 2.028426965059647, 48.946014504058311 ], [ 2.02918487813597, 48.946200658069145 ], [ 2.029357298584281, 48.945809664280937 ], [ 2.028640985772583, 48.945684169825789 ], [ 2.028378361220355, 48.945701776213056 ], [ 2.028426965059647, 48.946014504058311 ] ] ] ] } },
{ "type": "Feature", "properties": { "id": 29, "ilot_id": "P2'", "CLE_PRIMAIRE": 29, "CLE_PRIM_1": 29 }, "geometry": { "type": "MultiPolygon", "coordinates": [ [ [ [ 2.029339700187135, 48.946238684436494 ], [ 2.029986037086069, 48.946397433114079 ], [ 2.030174750355807, 48.946035697941724 ], [ 2.030109674875923, 48.945974879277216 ], [ 2.029502148089298, 48.945868834121761 ], [ 2.029339700187135, 48.946238684436494 ] ] ] ] } },
{ "type": "Feature", "properties": { "id": 30, "ilot_id": "P3", "CLE_PRIMAIRE": 30, "CLE_PRIM_1": 30 }, "geometry": { "type": "MultiPolygon", "coordinates": [ [ [ [ 2.028997137045049, 48.946542552103701 ], [ 2.02907636568154, 48.946517736732943 ], [ 2.029164884460238, 48.946269977545121 ], [ 2.028635223392616, 48.946138260769224 ], [ 2.028439709599284, 48.94615140866037 ], [ 2.02847483561926, 48.946376715046434 ], [ 2.02897185947864, 48.946534526181196 ], [ 2.028997137045049, 48.946542552103701 ] ] ] ] } },
{ "type": "Feature", "properties": { "id": 31, "ilot_id": "P4", "CLE_PRIMAIRE": 31, "CLE_PRIM_1": 31 }, "geometry": { "type": "MultiPolygon", "coordinates": [ [ [ [ 2.030514837799779, 48.947064230183962 ], [ 2.030923812545753, 48.947194079551814 ], [ 2.031223205652373, 48.947060631406977 ], [ 2.031229656087276, 48.947018132851348 ], [ 2.031032279512881, 48.946833654597114 ], [ 2.030514837799779, 48.947064230183962 ] ] ] ] } },
{ "type": "Feature", "properties": { "id": 32, "ilot_id": "P5", "CLE_PRIMAIRE": 32, "CLE_PRIM_1": 32 }, "geometry": { "type": "MultiPolygon", "coordinates": [ [ [ [ 2.030994575786099, 48.947316364679345 ], [ 2.031387070238156, 48.947651895339305 ], [ 2.031815579038718, 48.94745722287859 ], [ 2.031650364980078, 48.947284034182815 ], [ 2.03169140611323, 48.947267031017923 ], [ 2.0315000730174, 48.947091341995979 ], [ 2.030994575786099, 48.947316364679345 ] ] ] ] } },
{ "type": "Feature", "properties": { "id": 33, "ilot_id": "P5'", "CLE_PRIMAIRE": 33, "CLE_PRIM_1": 33 }, "geometry": { "type": "MultiPolygon", "coordinates": [ [ [ [ 2.031690686830887, 48.947266370547823 ], [ 2.031837518849631, 48.947283210340615 ], [ 2.033098290251475, 48.946744013008747 ], [ 2.032832048902341, 48.946498406514195 ], [ 2.0315000730174, 48.947091341995979 ], [ 2.0315000730174, 48.947091341995979 ], [ 2.031690686830887, 48.947266370547823 ] ] ] ] } },
{ "type": "Feature", "properties": { "id": 35, "ilot_id": "P7B", "CLE_PRIMAIRE": 35, "CLE_PRIM_1": 35 }, "geometry": { "type": "MultiPolygon", "coordinates": [ [ [ [ 2.031329838419443, 48.946936942820741 ], [ 2.031416400975491, 48.946951297756812 ], [ 2.032146783303514, 48.946625808422695 ], [ 2.031508992196936, 48.946215661430166 ], [ 2.031128809752026, 48.946470380166424 ], [ 2.030931325136012, 48.946564328295104 ], [ 2.031329838419443, 48.946936942820741 ] ] ] ] } },
{ "type": "Feature", "properties": { "id": 36, "ilot_id": "P7C", "CLE_PRIMAIRE": 36, "CLE_PRIM_1": 36 }, "geometry": { "type": "MultiPolygon", "coordinates": [ [ [ [ 2.030884148459011, 48.946520219391829 ], [ 2.031063216266935, 48.946437612235542 ], [ 2.031450269529774, 48.94617799641167 ], [ 2.031081270079978, 48.945962056613347 ], [ 2.030802331942252, 48.945651721136592 ], [ 2.030731399071342, 48.945617419364936 ], [ 2.030634086197718, 48.945602331595509 ], [ 2.030473224092719, 48.946072074177117 ], [ 2.030500525866585, 48.946158744075071 ], [ 2.030884148459011, 48.946520219391829 ] ] ] ] } },
{ "type": "Feature", "properties": { "id": 37, "ilot_id": "P7D", "CLE_PRIMAIRE": 37, "CLE_PRIM_1": 37 }, "geometry": { "type": "MultiPolygon", "coordinates": [ [ [ [ 2.031482857185587, 48.946124869951404 ], [ 2.032024335264454, 48.945754514061406 ], [ 2.031532757847852, 48.94543854333979 ], [ 2.031410456903493, 48.945359733032518 ], [ 2.031211792689698, 48.945258274397389 ], [ 2.03115885703417, 48.945236475353155 ], [ 2.030848430880993, 48.9451086723667 ], [ 2.030764189699815, 48.945133073895541 ], [ 2.03069324508506, 48.945388973917737 ], [ 2.031212466066932, 48.94596664002345 ], [ 2.031482857185587, 48.946124869951404 ] ] ] ] } },
{ "type": "Feature", "properties": { "id": 38, "ilot_id": "P8", "CLE_PRIMAIRE": 38, "CLE_PRIM_1": 38 }, "geometry": { "type": "MultiPolygon", "coordinates": [ [ [ [ 2.033174547821094, 48.946316443332528 ], [ 2.033532761557024, 48.946155602028419 ], [ 2.030942185585382, 48.944321820777049 ], [ 2.030825512639183, 48.944862349151144 ], [ 2.030897411797654, 48.94495578846923 ], [ 2.033174547821094, 48.946316443332528 ] ] ] ] } },
{ "type": "Feature", "properties": { "id": 40, "ilot_id": "V1", "CLE_PRIMAIRE": 40, "CLE_PRIM_1": 40 }, "geometry": { "type": "MultiPolygon", "coordinates": [ [ [ [ 2.028785744572641, 48.944436216481627 ], [ 2.028806253600402, 48.944494462092656 ], [ 2.029027112895644, 48.944557855036209 ], [ 2.029247972190888, 48.944621247899242 ], [ 2.029619199370144, 48.944697843696993 ], [ 2.029731829256022, 48.944721074716128 ], [ 2.02998719324865, 48.944195502445645 ], [ 2.02934919039938, 48.94400063001283 ], [ 2.028785744572641, 48.944436216481627 ] ] ] ] } },
{ "type": "Feature", "properties": { "id": 41, "ilot_id": "V2", "CLE_PRIMAIRE": 41, "CLE_PRIM_1": 41 }, "geometry": { "type": "MultiPolygon", "coordinates": [ [ [ [ 2.029731829256022, 48.944721074888911 ], [ 2.030517511095066, 48.944849684181115 ], [ 2.030595520175948, 48.944815156910167 ], [ 2.0306979042058, 48.944339997469619 ], [ 2.029987187132074, 48.944195518739335 ], [ 2.029987187132074, 48.944195518739335 ], [ 2.029731829256022, 48.944721074888911 ] ] ] ] } },
{ "type": "Feature", "properties": { "id": 43, "ilot_id": "V3", "CLE_PRIMAIRE": 43, "CLE_PRIM_1": 43 }, "geometry": { "type": "MultiPolygon", "coordinates": [ [ [ [ 2.029424637982218, 48.943942303211919 ], [ 2.030027672695906, 48.94412649516623 ], [ 2.030348326223832, 48.944191687470088 ], [ 2.03071392893639, 48.944266018321727 ], [ 2.030793731524304, 48.94389549402225 ], [ 2.029954836658617, 48.943615915069614 ], [ 2.029824567436536, 48.943633124664515 ], [ 2.029424637982218, 48.943942303211919 ] ] ] ] } },
{ "type": "Feature", "properties": { "id": 44, "ilot_id": "V4", "CLE_PRIMAIRE": 44, "CLE_PRIM_1": 44 }, "geometry": { "type": "MultiPolygon", "coordinates": [ [ [ [ 2.030816751527137, 48.943781506318672 ], [ 2.030893522220963, 48.94375470003547 ], [ 2.030870742679367, 48.943129699990308 ], [ 2.030577798281016, 48.943012904998014 ], [ 2.030011426237941, 48.943462799910684 ], [ 2.030028941545019, 48.943518899232643 ], [ 2.030816751527137, 48.943781506318672 ] ] ] ] } },
{ "type": "Feature", "properties": { "id": 45, "ilot_id": "S1", "CLE_PRIMAIRE": 45, "CLE_PRIM_1": 45 }, "geometry": { "type": "MultiPolygon", "coordinates": [ [ [ [ 2.032060036822048, 48.941269301571936 ], [ 2.03221947112471, 48.941287003508116 ], [ 2.032839329984198, 48.940793185280917 ], [ 2.032502337093052, 48.940578948190016 ], [ 2.031814124639771, 48.941103699052434 ], [ 2.032060036822048, 48.941269301571936 ] ] ] ] } },
{ "type": "Feature", "properties": { "id": 46, "ilot_id": "S2", "CLE_PRIMAIRE": 46, "CLE_PRIM_1": 46 }, "geometry": { "type": "MultiPolygon", "coordinates": [ [ [ [ 2.032916966176259, 48.940730852474658 ], [ 2.0335738524248, 48.940208012568384 ], [ 2.033133167045368, 48.939982646509584 ], [ 2.033043732340203, 48.939990018904872 ], [ 2.032498449735963, 48.940450627241674 ], [ 2.032916966176259, 48.940730852474658 ], [ 2.032916966176259, 48.940730852474658 ] ] ] ] } },
{ "type": "Feature", "properties": { "id": 47, "ilot_id": "S3", "CLE_PRIMAIRE": 47, "CLE_PRIM_1": 47 }, "geometry": { "type": "MultiPolygon", "coordinates": [ [ [ [ 2.033175442971528, 48.939869854019719 ], [ 2.033676136146294, 48.940125853922801 ], [ 2.034853331699554, 48.939188672176648 ], [ 2.034834550048236, 48.939156053561241 ], [ 2.033488713284126, 48.939022186923957 ], [ 2.033430738443956, 48.939016646648291 ], [ 2.033175442971528, 48.939869854019719 ] ] ] ] } },
{ "type": "Feature", "properties": { "id": 48, "ilot_id": "S4", "CLE_PRIMAIRE": 48, "CLE_PRIM_1": 48 }, "geometry": { "type": "MultiPolygon", "coordinates": [ [ [ [ 2.031945045548748, 48.940149609308314 ], [ 2.032335349425754, 48.940351459144267 ], [ 2.032441268437109, 48.940342963731368 ], [ 2.032917246468895, 48.939939672720037 ], [ 2.032903036096834, 48.939870696250196 ], [ 2.032407358013764, 48.93962978043163 ], [ 2.031945045548748, 48.940149609308314 ] ] ] ] } },
{ "type": "Feature", "properties": { "id": 49, "ilot_id": "S4'", "CLE_PRIMAIRE": 49, "CLE_PRIM_1": 49 }, "geometry": { "type": "MultiPolygon", "coordinates": [ [ [ [ 2.031878115003595, 48.940115149858464 ], [ 2.032338261219609, 48.939597695102769 ], [ 2.031786937691226, 48.939348548838133 ], [ 2.031714505449931, 48.939365321034977 ], [ 2.031400866962915, 48.939832147539057 ], [ 2.031419827915631, 48.939877929932344 ], [ 2.031878115003595, 48.940115149858464 ] ] ] ] } },
{ "type": "Feature", "properties": { "id": 55, "ilot_id": "S5", "CLE_PRIMAIRE": 55, "CLE_PRIM_1": 55 }, "geometry": { "type": "MultiPolygon", "coordinates": [ [ [ [ 2.032997683396657, 48.939784614928939 ], [ 2.033044444473816, 48.939780754553752 ], [ 2.03309127028288, 48.939702091306579 ], [ 2.033263703878776, 48.939027783200544 ], [ 2.033219309011818, 48.938983998484083 ], [ 2.03214218835938, 48.938819022693927 ], [ 2.032064392981887, 48.938844535493423 ], [ 2.031823704818984, 48.939202785239139 ], [ 2.031841771740506, 48.939244595459087 ], [ 2.032997683396657, 48.939784614928939 ] ] ] ] } },
{ "type": "Feature", "properties": { "id": 56, "ilot_id": "P1", "CLE_PRIMAIRE": 56, "CLE_PRIM_1": 56 }, "geometry": { "type": "MultiPolygon", "coordinates": [ [ [ [ 2.02842772915202, 48.945596232567723 ], [ 2.030357640278794, 48.945933090305111 ], [ 2.030492928016304, 48.945526107707984 ], [ 2.030603253393681, 48.945092168007434 ], [ 2.030557336048132, 48.945035840755217 ], [ 2.028523962587338, 48.944703039855547 ], [ 2.02831410428369, 48.944865209087617 ], [ 2.02842772915202, 48.945596232567723 ] ] ] ] } },
{ "type": "Feature", "properties": { "id": 53, "ilot_id": "P3'", "CLE_PRIMAIRE": 53, "CLE_PRIM_1": 53 }, "geometry": { "type": "MultiPolygon", "coordinates": [ [ [ [ 2.029167066137661, 48.946598183033771 ], [ 2.029686410509648, 48.946763076030344 ], [ 2.029773454752933, 48.9467397715811 ], [ 2.02993023944917, 48.946454420520794 ], [ 2.029277467327858, 48.946294203932766 ], [ 2.029167066137661, 48.946598183033771 ] ] ] ] } },
{ "type": "Feature", "properties": { "id": 68, "ilot_id": "P4'", "CLE_PRIMAIRE": 68, "CLE_PRIM_1": 68 }, "geometry": { "type": "MultiPolygon", "coordinates": [ [ [ [ 2.030514837799779, 48.947064230183962 ], [ 2.031032279512881, 48.946833654597114 ], [ 2.030956052728444, 48.9467938180319 ], [ 2.030735212288609, 48.946587409858473 ], [ 2.03053017526788, 48.946515192870471 ], [ 2.030148740837825, 48.946508616059369 ], [ 2.029945424472465, 48.946868159705744 ], [ 2.030174195473772, 48.946940444013208 ], [ 2.030514837799779, 48.947064230183962 ], [ 2.030514837799779, 48.947064230183962 ] ] ] ] } },
{ "type": "Feature", "properties": { "id": 57, "ilot_id": "L11'", "CLE_PRIMAIRE": 57, "CLE_PRIM_1": 57 }, "geometry": { "type": "MultiPolygon", "coordinates": [ [ [ [ 2.02497896992509, 48.939505096233198 ], [ 2.025739891292989, 48.939766023289572 ], [ 2.025806904303038, 48.939729471469676 ], [ 2.025791478242619, 48.939235276037671 ], [ 2.025870850761597, 48.939001883960344 ], [ 2.025456959658952, 48.938777840270156 ], [ 2.025038819362287, 48.939376211358031 ], [ 2.02497896992509, 48.939505096233198 ] ] ] ] } },
{ "type": "Feature", "properties": { "id": 39, "ilot_id": "Halle", "CLE_PRIMAIRE": 39, "CLE_PRIM_1": 39 }, "geometry": { "type": "MultiPolygon", "coordinates": [ [ [ [ 2.027989642950523, 48.943504019416096 ], [ 2.028290729994114, 48.94359540143158 ], [ 2.028510534511466, 48.943282981870588 ], [ 2.027931925893479, 48.943107418314511 ], [ 2.0278934867488, 48.943253237172598 ], [ 2.028118115905332, 48.943321414045116 ], [ 2.027989642950523, 48.943504019416096 ] ] ] ] } },
{ "type": "Feature", "properties": { "id": 58, "ilot_id": "P7A", "CLE_PRIMAIRE": 58, "CLE_PRIM_1": 58 }, "geometry": { "type": "MultiPolygon", "coordinates": [ [ [ [ 2.032216102868319, 48.946594927150528 ], [ 2.032835030012708, 48.946319127075597 ], [ 2.032835032764345, 48.946276811736624 ], [ 2.032091943085114, 48.945798951412804 ], [ 2.031566405944578, 48.946177143401897 ], [ 2.032212613199807, 48.946596474845073 ], [ 2.032216102868319, 48.946594927150528 ] ] ] ] } }
]
}
