{
"type": "FeatureCollection",
"name": "ECHELLE3_BATIS",
"crs": { "type": "name", "properties": { "name": "urn:ogc:def:crs:OGC:1.3:CRS84" } },
"features": [
{ "type": "Feature", "properties": { "id": 1, "CLE_PRIMAI": "1", "id-lot": "P7D" }, "geometry": { "type": "MultiPolygon", "coordinates": [ [ [ [ 2.031110201208427, 48.945800464625165 ], [ 2.03127511299307, 48.945736526621538 ], [ 2.030875488985744, 48.945291688646421 ], [ 2.030934608515611, 48.945078442135554 ], [ 2.03082943785472, 48.945035141594026 ], [ 2.030745196664138, 48.945059543115342 ], [ 2.030674252058788, 48.945315443178778 ], [ 2.031110201208427, 48.945800464625165 ] ] ] ] } },
{ "type": "Feature", "properties": { "id": 2, "CLE_PRIMAI": "2", "id-lot": "P7D" }, "geometry": { "type": "MultiPolygon", "coordinates": [ [ [ [ 2.031463864159316, 48.946051339212445 ], [ 2.031813209552738, 48.945812430536712 ], [ 2.031694820280609, 48.945737757070717 ], [ 2.031341224145615, 48.945979571707582 ], [ 2.031463864159316, 48.946051339212445 ] ] ] ] } },
{ "type": "Feature", "properties": { "id": 3, "CLE_PRIMAI": "3", "id-lot": "P7D" }, "geometry": { "type": "MultiPolygon", "coordinates": [ [ [ [ 2.031419385738364, 48.945449981566099 ], [ 2.031534195893224, 48.945373125752241 ], [ 2.031411894948866, 48.945294315448301 ], [ 2.031213230735072, 48.945192856817457 ], [ 2.031160295079543, 48.945171057774154 ], [ 2.031073111005625, 48.945262401793663 ], [ 2.031303757433359, 48.94537565319645 ], [ 2.031419385738364, 48.945449981566099 ] ] ] ] } },
{ "type": "Feature", "properties": { "id": 4, "CLE_PRIMAI": "4", "id-lot": "P7D" }, "geometry": { "type": "MultiPolygon", "coordinates": [ [ [ [ 2.031884018611142, 48.945762177809428 ], [ 2.03197970334123, 48.945697977465485 ], [ 2.03162779936284, 48.945471741274858 ], [ 2.031532114632752, 48.94553594190986 ], [ 2.031884018611142, 48.945762177809428 ] ] ] ] } },
{ "type": "Feature", "properties": { "id": null, "CLE_PRIMAI": null, "id-lot": null }, "geometry": { "type": "MultiPolygon", "coordinates": [ ] } },
{ "type": "Feature", "properties": { "id": 5, "CLE_PRIMAI": "5", "id-lot": "L1" }, "geometry": { "type": "MultiPolygon", "coordinates": [ [ [ [ 2.027222441168049, 48.94236240656722 ], [ 2.027215985968566, 48.942252229145993 ], [ 2.026963183433866, 48.942258620452279 ], [ 2.026555289696326, 48.942062234021066 ], [ 2.026455667841752, 48.942151499622362 ], [ 2.026910121472691, 48.942370302557656 ], [ 2.027222441168049, 48.94236240656722 ] ] ] ] } },
{ "type": "Feature", "properties": { "id": 7, "CLE_PRIMAI": "7", "id-lot": "L1" }, "geometry": { "type": "MultiPolygon", "coordinates": [ [ [ [ 2.027008740034259, 48.942074078830373 ], [ 2.027205137858553, 48.94206915523268 ], [ 2.027196620401624, 48.941921695960744 ], [ 2.026897229140792, 48.941818764204363 ], [ 2.026897229140792, 48.941818764204363 ], [ 2.026630645695365, 48.94182588362213 ], [ 2.02663863209387, 48.941954903523225 ], [ 2.026852660920464, 48.941949187892106 ], [ 2.027004516434667, 48.942001396084201 ], [ 2.027008740034259, 48.942074078830373 ] ] ] ] } },
{ "type": "Feature", "properties": { "id": 6, "CLE_PRIMAI": "6", "id-lot": "L1" }, "geometry": { "type": "MultiPolygon", "coordinates": [ [ [ [ 2.026077155608689, 48.941969258982752 ], [ 2.026348966541481, 48.942100126678483 ], [ 2.026448588396053, 48.94201086098527 ], [ 2.026182796495094, 48.941882891022843 ], [ 2.026077155608689, 48.941969258982752 ] ] ] ] } },
{ "type": "Feature", "properties": { "id": 12, "CLE_PRIMAI": "12", "id-lot": "L1'" }, "geometry": { "type": "MultiPolygon", "coordinates": [ [ [ [ 2.025987889193104, 48.941923643552727 ], [ 2.02609400528563, 48.941837661166488 ], [ 2.025835263834682, 48.941697367949629 ], [ 2.02572798931363, 48.941782722461696 ], [ 2.025987889193104, 48.941923643552727 ] ] ] ] } },
{ "type": "Feature", "properties": { "id": 11, "CLE_PRIMAI": "11", "id-lot": "L1'" }, "geometry": { "type": "MultiPolygon", "coordinates": [ [ [ [ 2.025640006912751, 48.941735017170799 ], [ 2.025747281433807, 48.941649662577156 ], [ 2.025483879781738, 48.941506841992776 ], [ 2.025394491274177, 48.94158200010127 ], [ 2.025394491274177, 48.94158200010127 ], [ 2.025394491582599, 48.941601895076559 ], [ 2.025640006912751, 48.941735017170799 ] ] ] ] } },
{ "type": "Feature", "properties": { "id": 13, "CLE_PRIMAI": "13", "id-lot": "L1'" }, "geometry": { "type": "MultiPolygon", "coordinates": [ [ [ [ 2.026117954025737, 48.941737596606146 ], [ 2.026763427299444, 48.941721184729168 ], [ 2.026757268536859, 48.941610577698398 ], [ 2.026111435883672, 48.941626999126029 ], [ 2.026117954025737, 48.941737596606146 ] ] ] ] } },
{ "type": "Feature", "properties": { "id": 14, "CLE_PRIMAI": "14", "id-lot": "L1'" }, "geometry": { "type": "MultiPolygon", "coordinates": [ [ [ [ 2.026919323058562, 48.941744570458496 ], [ 2.027087688617193, 48.941739998608384 ], [ 2.027087688617193, 48.941739998608384 ], [ 2.027067048995245, 48.941371355683096 ], [ 2.026898668990597, 48.94137565027242 ], [ 2.026919323058562, 48.941744570458496 ] ] ] ] } },
{ "type": "Feature", "properties": { "id": 8, "CLE_PRIMAI": "8", "id-lot": "L1'" }, "geometry": { "type": "MultiPolygon", "coordinates": [ [ [ [ 2.025583223157445, 48.941423312573015 ], [ 2.025742604452269, 48.941505091685976 ], [ 2.025916168129973, 48.941359156612215 ], [ 2.025914463215119, 48.941293028555535 ], [ 2.025804982543998, 48.941236853406963 ], [ 2.025583223157445, 48.941423312573015 ] ] ] ] } },
{ "type": "Feature", "properties": { "id": 9, "CLE_PRIMAI": "9", "id-lot": "L1'" }, "geometry": { "type": "MultiPolygon", "coordinates": [ [ [ [ 2.026109822845021, 48.941525910708982 ], [ 2.026306274167454, 48.94152075602976 ], [ 2.026300891229149, 48.941390999608636 ], [ 2.026420848130133, 48.941387487113893 ], [ 2.026412973554104, 48.941258626091773 ], [ 2.026295530927467, 48.941261788510957 ], [ 2.026289395646428, 48.941113895977033 ], [ 2.026092939503722, 48.94111893450421 ], [ 2.026109822845021, 48.941525910708982 ] ] ] ] } },
{ "type": "Feature", "properties": { "id": 10, "CLE_PRIMAI": "10", "id-lot": "L1'" }, "geometry": { "type": "MultiPolygon", "coordinates": [ [ [ [ 2.026581356150852, 48.941254363597643 ], [ 2.027060256318442, 48.941241955084621 ], [ 2.027051546154084, 48.941094458272921 ], [ 2.026573108629408, 48.941106619565495 ], [ 2.026581356150852, 48.941254363597643 ] ] ] ] } },
{ "type": "Feature", "properties": { "id": 36, "CLE_PRIMAI": "36", "id-lot": "L8" }, "geometry": { "type": "MultiPolygon", "coordinates": [ [ [ [ 2.025204819818154, 48.941498408886723 ], [ 2.025310864436409, 48.941412381561904 ], [ 2.025053421715727, 48.94127182292538 ], [ 2.024945706817676, 48.941356938558265 ], [ 2.025204819818154, 48.941498408886723 ] ] ] ] } },
{ "type": "Feature", "properties": { "id": 37, "CLE_PRIMAI": "37", "id-lot": "L8" }, "geometry": { "type": "MultiPolygon", "coordinates": [ [ [ [ 2.024837501757369, 48.941298151590829 ], [ 2.024945216655419, 48.941213035857686 ], [ 2.024686046360498, 48.941071534250227 ], [ 2.024578331462448, 48.941156650224691 ], [ 2.024837501757369, 48.941298151590829 ] ] ] ] } },
{ "type": "Feature", "properties": { "id": 38, "CLE_PRIMAI": "38", "id-lot": "L8" }, "geometry": { "type": "MultiPolygon", "coordinates": [ [ [ [ 2.024469976963177, 48.94109740401143 ], [ 2.0245776596462, 48.941012270351557 ], [ 2.024276561778218, 48.940847951942665 ], [ 2.024173590606568, 48.940935664609292 ], [ 2.024469976963177, 48.94109740401143 ] ] ] ] } },
{ "type": "Feature", "properties": { "id": null, "CLE_PRIMAI": null, "id-lot": "L8" }, "geometry": { "type": "MultiPolygon", "coordinates": [ [ [ [ 2.024470233132619, 48.940682978837344 ], [ 2.024796788796449, 48.940859341503966 ], [ 2.024921523696934, 48.940759696419462 ], [ 2.024594968033105, 48.94058333340076 ], [ 2.024470233132619, 48.940682978837344 ] ] ] ] } },
{ "type": "Feature", "properties": { "id": 34, "CLE_PRIMAI": "34", "id-lot": "L8" }, "geometry": { "type": "MultiPolygon", "coordinates": [ [ [ [ 2.024977341781938, 48.941091086599975 ], [ 2.025078936281524, 48.941011728455834 ], [ 2.02523264253947, 48.941094939192119 ], [ 2.025356244373015, 48.940994475182904 ], [ 2.025051608138952, 48.940830053172149 ], [ 2.024826041144466, 48.941008637147917 ], [ 2.024977341781938, 48.941091086599975 ] ] ] ] } },
{ "type": "Feature", "properties": { "id": 33, "CLE_PRIMAI": "33", "id-lot": "L8" }, "geometry": { "type": "MultiPolygon", "coordinates": [ [ [ [ 2.025414102925982, 48.941328630530229 ], [ 2.025607046025734, 48.941172105114553 ], [ 2.025607046025734, 48.941172105114553 ], [ 2.025598173533677, 48.941125132923304 ], [ 2.025486406495387, 48.941064771376368 ], [ 2.025261313163496, 48.941247374858584 ], [ 2.025414102925982, 48.941328630530229 ] ] ] ] } },
{ "type": "Feature", "properties": { "id": 15, "CLE_PRIMAI": "15", "id-lot": "L2-3" }, "geometry": { "type": "MultiPolygon", "coordinates": [ [ [ [ 2.026089356453329, 48.941017488249884 ], [ 2.026622159636985, 48.941003821066801 ], [ 2.026615585014403, 48.940893223403002 ], [ 2.026084448749512, 48.94090685047739 ], [ 2.026089356453329, 48.941017488249884 ] ] ] ] } },
{ "type": "Feature", "properties": { "id": 16, "CLE_PRIMAI": "16", "id-lot": "L2-3" }, "geometry": { "type": "MultiPolygon", "coordinates": [ [ [ [ 2.026776504795503, 48.940999827596578 ], [ 2.026944887939991, 48.940995574547209 ], [ 2.02691898353797, 48.940552740991201 ], [ 2.026750598044343, 48.94055695455171 ], [ 2.026776504795503, 48.940999827596578 ] ] ] ] } },
{ "type": "Feature", "properties": { "id": 18, "CLE_PRIMAI": "18", "id-lot": "L2-3" }, "geometry": { "type": "MultiPolygon", "coordinates": [ [ [ [ 2.026715110177396, 48.940428316257545 ], [ 2.026911500264851, 48.940423308073854 ], [ 2.026902151395296, 48.9402651337302 ], [ 2.026902151395296, 48.9402651337302 ], [ 2.026747783869213, 48.940212148576002 ], [ 2.026403881779757, 48.940221039197887 ], [ 2.026411762333524, 48.940350000721686 ], [ 2.026674874861419, 48.940343252548452 ], [ 2.026709998673111, 48.940355327389952 ], [ 2.026715100329256, 48.940428175632782 ], [ 2.026715110177396, 48.940428316257545 ] ] ] ] } },
{ "type": "Feature", "properties": { "id": 17, "CLE_PRIMAI": "17", "id-lot": "L2-3" }, "geometry": { "type": "MultiPolygon", "coordinates": [ [ [ [ 2.026078376950372, 48.940767898675659 ], [ 2.026274886535105, 48.940764155610317 ], [ 2.026266203063332, 48.940569390650694 ], [ 2.026385772793154, 48.940566069863614 ], [ 2.026377898217126, 48.940437206720674 ], [ 2.026260410503669, 48.940439466658496 ], [ 2.02625659916786, 48.940353980265421 ], [ 2.026060147337232, 48.940359018758762 ], [ 2.026078376950372, 48.940767898675659 ] ] ] ] } },
{ "type": "Feature", "properties": { "id": 47, "CLE_PRIMAI": "47", "id-lot": "L9'" }, "geometry": { "type": "MultiPolygon", "coordinates": [ [ [ [ 2.025690857553582, 48.941019953604538 ], [ 2.025829535264956, 48.940909170259616 ], [ 2.025849362636511, 48.940794570667954 ], [ 2.025854062195775, 48.940767411152017 ], [ 2.025846937029453, 48.940610521437407 ], [ 2.0256504349852, 48.940614432042956 ], [ 2.025657223366025, 48.940763776439553 ], [ 2.025655096552076, 48.940780072888352 ], [ 2.025645606875432, 48.940852786297093 ], [ 2.025539004928639, 48.940937945636485 ], [ 2.025690857553582, 48.941019953604538 ] ] ] ] } },
{ "type": "Feature", "properties": { "id": 44, "CLE_PRIMAI": "44", "id-lot": "L9'" }, "geometry": { "type": "MultiPolygon", "coordinates": [ [ [ [ 2.025399513668204, 48.940826820835568 ], [ 2.025506547651805, 48.940741314816385 ], [ 2.025104058356336, 48.94052395757425 ], [ 2.024997033336036, 48.940609456805269 ], [ 2.025399513668204, 48.940826820835568 ] ] ] ] } },
{ "type": "Feature", "properties": { "id": 46, "CLE_PRIMAI": "46", "id-lot": "L9'" }, "geometry": { "type": "MultiPolygon", "coordinates": [ [ [ [ 2.025644205526025, 48.94047602619387 ], [ 2.025840653820385, 48.940472170450398 ], [ 2.025829914313657, 48.940235689742785 ], [ 2.025829914313657, 48.940235689742785 ], [ 2.025631686166621, 48.940240778716692 ], [ 2.025644205526025, 48.94047602619387 ] ] ] ] } },
{ "type": "Feature", "properties": { "id": null, "CLE_PRIMAI": null, "id-lot": "L9'" }, "geometry": { "type": "MultiPolygon", "coordinates": [ [ [ [ 2.02546988149837, 48.940355696320147 ], [ 2.025463306875787, 48.940245097220128 ], [ 2.025191625291877, 48.940252060328596 ], [ 2.025191625291877, 48.940252060328596 ], [ 2.024799483675141, 48.940039980821794 ], [ 2.024692373591743, 48.94012542721682 ], [ 2.025134064545954, 48.940364309176211 ], [ 2.02546988149837, 48.940355696320147 ], [ 2.02546988149837, 48.940355696320147 ] ] ] ] } },
{ "type": "Feature", "properties": { "id": 43, "CLE_PRIMAI": "43", "id-lot": "L9'" }, "geometry": { "type": "MultiPolygon", "coordinates": [ [ [ [ 2.02486689711989, 48.940539138208472 ], [ 2.024973931103493, 48.940453631696457 ], [ 2.024571441808023, 48.940236273201457 ], [ 2.02446441678772, 48.940321772925316 ], [ 2.02486689711989, 48.940539138208472 ], [ 2.02486689711989, 48.940539138208472 ] ] ] ] } },
{ "type": "Feature", "properties": { "id": 42, "CLE_PRIMAI": "42", "id-lot": "L9'" }, "geometry": { "type": "MultiPolygon", "coordinates": [ [ [ [ 2.024336343503972, 48.940252604910711 ], [ 2.024669340874168, 48.939969594691988 ], [ 2.024539193567791, 48.939899200147565 ], [ 2.024539193567791, 48.939899200147565 ], [ 2.024207648691742, 48.940180977401113 ], [ 2.024336343503972, 48.940252604910711 ], [ 2.024336343503972, 48.940252604910711 ] ] ] ] } },
{ "type": "Feature", "properties": { "id": 39, "CLE_PRIMAI": "39", "id-lot": "L9" }, "geometry": { "type": "MultiPolygon", "coordinates": [ [ [ [ 2.02540590669212, 48.940145031046256 ], [ 2.025825306535047, 48.940134274030932 ], [ 2.025820280050255, 48.940023634732917 ], [ 2.025399331859714, 48.940034431484818 ], [ 2.02540590669212, 48.940145031046256 ] ] ] ] } },
{ "type": "Feature", "properties": { "id": 40, "CLE_PRIMAI": "40", "id-lot": "L9" }, "geometry": { "type": "MultiPolygon", "coordinates": [ [ [ [ 2.025089212652857, 48.940065249421998 ], [ 2.025291229616281, 48.939893557562897 ], [ 2.025395935059377, 48.939929556968757 ], [ 2.025487103527302, 48.939815150245323 ], [ 2.025236429777279, 48.939728964360228 ], [ 2.024938584370293, 48.939982182317408 ], [ 2.025089212652857, 48.940065249421998 ] ] ] ] } },
{ "type": "Feature", "properties": { "id": 41, "CLE_PRIMAI": "41", "id-lot": "L9" }, "geometry": { "type": "MultiPolygon", "coordinates": [ [ [ [ 2.024789154697253, 48.93989784153684 ], [ 2.025058757226321, 48.939667877434879 ], [ 2.024933769412329, 48.939624897202627 ], [ 2.024933769412329, 48.939624897202627 ], [ 2.024843844859487, 48.939640278391138 ], [ 2.024633696442087, 48.939818888784387 ], [ 2.024789154697253, 48.93989784153684 ] ] ] ] } },
{ "type": "Feature", "properties": { "id": 68, "CLE_PRIMAI": "68", "id-lot": "L11'" }, "geometry": { "type": "MultiPolygon", "coordinates": [ [ [ [ 2.02497896992509, 48.939505096233205 ], [ 2.025472500981492, 48.939674101700128 ], [ 2.025593801038096, 48.939715638083989 ], [ 2.025736083394515, 48.939765412270404 ], [ 2.025806904303038, 48.939729471469676 ], [ 2.02580613248782, 48.939712220932392 ], [ 2.025791478242619, 48.939235283846095 ], [ 2.025806192206537, 48.939174473887874 ], [ 2.025870850761597, 48.939001883960337 ], [ 2.025456959658952, 48.938777840270156 ], [ 2.025388667376831, 48.938875689973763 ], [ 2.025459227784981, 48.938900551403805 ], [ 2.025518474554613, 48.938926664495767 ], [ 2.025480431729799, 48.938973241400376 ], [ 2.025566816370739, 48.939003684413898 ], [ 2.02569247834787, 48.939052156217976 ], [ 2.025763405956402, 48.939077151944367 ], [ 2.025710960137658, 48.939141362643468 ], [ 2.025585458845642, 48.93909713454385 ], [ 2.025538323982501, 48.939154842880775 ], [ 2.025583768059875, 48.939166670885292 ], [ 2.025535305467887, 48.939226004718897 ], [ 2.025592638261498, 48.939246209402747 ], [ 2.025553137928194, 48.939294570472036 ], [ 2.025593361972673, 48.939308745832548 ], [ 2.025550210351024, 48.939361577179518 ], [ 2.025590524161385, 48.939375784155587 ], [ 2.025544717052792, 48.939431866586695 ], [ 2.025614400260123, 48.939456423584723 ], [ 2.025576891543405, 48.939502346083785 ], [ 2.025445431633488, 48.939456019389908 ], [ 2.025422860585708, 48.939483653454715 ], [ 2.025054840340437, 48.939353959659265 ], [ 2.02497896992509, 48.939505096233205 ] ] ] ] } },
{ "type": "Feature", "properties": { "id": 19, "CLE_PRIMAI": "19", "id-lot": "L4" }, "geometry": { "type": "MultiPolygon", "coordinates": [ [ [ [ 2.026049792722931, 48.94012851803118 ], [ 2.02647242005029, 48.940117670493237 ], [ 2.026465840497887, 48.940007071233623 ], [ 2.026044733004298, 48.940017879544726 ], [ 2.026049792722931, 48.94012851803118 ] ] ] ] } },
{ "type": "Feature", "properties": { "id": 20, "CLE_PRIMAI": "20", "id-lot": "L4" }, "geometry": { "type": "MultiPolygon", "coordinates": [ [ [ [ 2.026627425878266, 48.940113657596257 ], [ 2.026795809022754, 48.940109404471393 ], [ 2.026769302540021, 48.93966085551515 ], [ 2.026600921854234, 48.939665150269015 ], [ 2.026627425878266, 48.940113657596257 ] ] ] ] } },
{ "type": "Feature", "properties": { "id": 21, "CLE_PRIMAI": "21", "id-lot": "L4" }, "geometry": { "type": "MultiPolygon", "coordinates": [ [ [ [ 2.026039664932858, 48.939907249234828 ], [ 2.026236228588592, 48.939903433695882 ], [ 2.026225938450318, 48.939674714674787 ], [ 2.026331140258795, 48.939672031375451 ], [ 2.026323244148815, 48.939542813526145 ], [ 2.026220126513755, 48.9395455322312 ], [ 2.026215673542894, 48.939446555415877 ], [ 2.026019109887157, 48.939450370989739 ], [ 2.026039142592506, 48.939895636355459 ], [ 2.026039664932858, 48.939907249234828 ] ] ] ] } },
{ "type": "Feature", "properties": { "id": 22, "CLE_PRIMAI": "22", "id-lot": "L4" }, "geometry": { "type": "MultiPolygon", "coordinates": [ [ [ [ 2.026565160445232, 48.939536784084204 ], [ 2.026761691872623, 48.939531819915317 ], [ 2.026752971908552, 48.939384314684467 ], [ 2.026148815168347, 48.939129305750541 ], [ 2.026148815168347, 48.939129305750541 ], [ 2.026069609527083, 48.93914973579497 ], [ 2.026037377964046, 48.939235773580627 ], [ 2.026293151530521, 48.939343729321621 ], [ 2.026434915204885, 48.939403564186492 ], [ 2.026560443912839, 48.939456546622395 ], [ 2.026565160445232, 48.939536784084204 ] ] ] ] } },
{ "type": "Feature", "properties": { "id": 32, "CLE_PRIMAI": "32", "id-lot": "L5'" }, "geometry": { "type": "MultiPolygon", "coordinates": [ [ [ [ 2.02644385374393, 48.939077341654212 ], [ 2.026619755917416, 48.939063429252208 ], [ 2.026536955590672, 48.938628659098377 ], [ 2.026347406716126, 48.938644223995055 ], [ 2.026428635409818, 48.939071036687544 ], [ 2.02644385374393, 48.939077341654212 ] ] ] ] } },
{ "type": "Feature", "properties": { "id": 31, "CLE_PRIMAI": "31", "id-lot": "L5'" }, "geometry": { "type": "MultiPolygon", "coordinates": [ [ [ [ 2.026228291789148, 48.938986263698709 ], [ 2.026305578318417, 48.938916648856342 ], [ 2.026275479717617, 48.938902231090587 ], [ 2.026293374572989, 48.938886112512407 ], [ 2.026037198704546, 48.938763399501525 ], [ 2.025942017319904, 48.938849133152978 ], [ 2.026047773040855, 48.938902929903584 ], [ 2.026228291789148, 48.938986263698709 ] ] ] ] } },
{ "type": "Feature", "properties": { "id": 29, "CLE_PRIMAI": "29", "id-lot": "L5'" }, "geometry": { "type": "MultiPolygon", "coordinates": [ [ [ [ 2.025794637553078, 48.938769274905709 ], [ 2.025922044224619, 48.938666378403546 ], [ 2.025944038327916, 48.938664502338298 ], [ 2.025917391470368, 48.938529711856582 ], [ 2.025895397367072, 48.93853158792691 ], [ 2.025792593752466, 48.93847575865427 ], [ 2.025573566528958, 48.938649648446201 ], [ 2.025794637553078, 48.938769274905709 ] ] ] ] } },
{ "type": "Feature", "properties": { "id": 30, "CLE_PRIMAI": "30", "id-lot": "L5'" }, "geometry": { "type": "MultiPolygon", "coordinates": [ [ [ [ 2.02614497729022, 48.938525683100032 ], [ 2.026511627954177, 48.938495575329128 ], [ 2.026490559985297, 48.938384863382907 ], [ 2.026490559985297, 48.938384863382907 ], [ 2.026128915760428, 48.9383034693778 ], [ 2.026152443985958, 48.938427098650713 ], [ 2.026126618957868, 48.938429219294136 ], [ 2.02614497729022, 48.938525683100032 ] ] ] ] } },
{ "type": "Feature", "properties": { "id": 28, "CLE_PRIMAI": "28", "id-lot": "L5" }, "geometry": { "type": "MultiPolygon", "coordinates": [ [ [ [ 2.026069089902436, 48.938223564139598 ], [ 2.026149013788689, 48.938213030610662 ], [ 2.026122081514591, 48.938118641774828 ], [ 2.02604018517781, 48.938128920779832 ], [ 2.026069089902436, 48.938223564139598 ] ] ] ] } },
{ "type": "Feature", "properties": { "id": 27, "CLE_PRIMAI": "27", "id-lot": "L5" }, "geometry": { "type": "MultiPolygon", "coordinates": [ [ [ [ 2.026183404035784, 48.938208193430363 ], [ 2.026348441094565, 48.93818712334069 ], [ 2.026282177567725, 48.937954258289636 ], [ 2.02611491328581, 48.937974341536687 ], [ 2.026181326749032, 48.938206567914172 ], [ 2.026183404035784, 48.938208193430363 ] ] ] ] } },
{ "type": "Feature", "properties": { "id": 24, "CLE_PRIMAI": "24", "id-lot": "L5" }, "geometry": { "type": "MultiPolygon", "coordinates": [ [ [ [ 2.026044779508539, 48.937849618280268 ], [ 2.026244707087361, 48.9378250035858 ], [ 2.026204422168551, 48.937686731566828 ], [ 2.026027379521486, 48.937593012369469 ], [ 2.025919947273656, 48.937676095756373 ], [ 2.025910249262961, 48.937671639596054 ], [ 2.025861068197472, 48.937710611463906 ], [ 2.025976819346347, 48.937773416824832 ], [ 2.02598456450034, 48.937767351677074 ], [ 2.026028324081491, 48.937791436862916 ], [ 2.026044779508539, 48.937849618280268 ] ] ] ] } },
{ "type": "Feature", "properties": { "id": 23, "CLE_PRIMAI": "23", "id-lot": "L5" }, "geometry": { "type": "MultiPolygon", "coordinates": [ [ [ [ 2.025070319217778, 48.938376060143028 ], [ 2.025358103009722, 48.938540039165304 ], [ 2.025508052703437, 48.938621475306419 ], [ 2.025508052703437, 48.938621475306419 ], [ 2.025684791682758, 48.938474154612877 ], [ 2.025537430408094, 48.938394060094247 ], [ 2.025461443275887, 48.938454427229331 ], [ 2.025319960917527, 48.938377984409399 ], [ 2.025357829770925, 48.93834836012725 ], [ 2.025207795371134, 48.938266869319776 ], [ 2.025070319217778, 48.938376060143028 ] ] ] ] } },
{ "type": "Feature", "properties": { "id": 26, "CLE_PRIMAI": "26", "id-lot": "L5" }, "geometry": { "type": "MultiPolygon", "coordinates": [ [ [ [ 2.024998705009562, 48.938337519435784 ], [ 2.025305155055377, 48.938095592927411 ], [ 2.02528419877633, 48.938084302513211 ], [ 2.02533011554354, 48.938048036265094 ], [ 2.02537542882629, 48.938072560422178 ], [ 2.025596852263242, 48.938046476171834 ], [ 2.025556316873254, 48.937909550233918 ], [ 2.02552931652962, 48.937912997939279 ], [ 2.025522977703027, 48.937893575207625 ], [ 2.025555280736001, 48.937868800252417 ], [ 2.025575642132319, 48.937880105265336 ], [ 2.025620811319662, 48.937843859238249 ], [ 2.02559995365586, 48.937832458216789 ], [ 2.025645008330861, 48.937796894849079 ], [ 2.02566588507585, 48.937807910893966 ], [ 2.025711006554339, 48.937772247625617 ], [ 2.025690362032103, 48.937760955196723 ], [ 2.025734218993939, 48.937725761255514 ], [ 2.025755684264892, 48.937737125447342 ], [ 2.02580078823931, 48.93770097726027 ], [ 2.025779750840205, 48.937689709061281 ], [ 2.025822907949301, 48.937655131827526 ], [ 2.025843450670091, 48.937666211908606 ], [ 2.025891236408933, 48.937626274336438 ], [ 2.025871875196628, 48.93761535406442 ], [ 2.025945414025861, 48.937553179823432 ], [ 2.02585897878601, 48.937507520864287 ], [ 2.02585897878601, 48.937507520864287 ], [ 2.025794478359544, 48.937511541964206 ], [ 2.025560189882783, 48.93769025755018 ], [ 2.02585897878601, 48.937507520864287 ], [ 2.02585897878601, 48.937507520864287 ], [ 2.02582827089888, 48.937510410604816 ], [ 2.025793489288619, 48.937512328210993 ], [ 2.025793489288619, 48.937512328210993 ], [ 2.025748320175233, 48.937548200962688 ], [ 2.025763006156482, 48.937556211156163 ], [ 2.025715228414216, 48.937593924624068 ], [ 2.025701530088556, 48.937586713738902 ], [ 2.025655438346286, 48.937622368418673 ], [ 2.025560189882783, 48.93769025755018 ], [ 2.025566654793869, 48.937693572999493 ], [ 2.025566654793869, 48.937693572999493 ], [ 2.025521533383189, 48.937729382953663 ], [ 2.025430464026098, 48.937801652831958 ], [ 2.025455361835387, 48.937815073790048 ], [ 2.025365335198068, 48.937886309083758 ], [ 2.025339829780441, 48.937872848389802 ], [ 2.025248873203107, 48.93794586922106 ], [ 2.025283924317297, 48.937965046994123 ], [ 2.025195817185191, 48.938036817424695 ], [ 2.025157297814697, 48.938015632644515 ], [ 2.024977433291351, 48.938159080658288 ], [ 2.024995464355545, 48.938167434389811 ], [ 2.024977433291351, 48.938159080658288 ], [ 2.024868905287841, 48.938243955681898 ], [ 2.024870644415541, 48.938267820633072 ], [ 2.024998705009562, 48.938337519435784 ] ] ] ] } },
{ "type": "Feature", "properties": { "id": null, "CLE_PRIMAI": null, "id-lot": null }, "geometry": { "type": "MultiPolygon", "coordinates": [ [ [ [ 2.02517621083766, 48.93731065056086 ], [ 2.025230241230821, 48.937340102496933 ], [ 2.025152208160251, 48.93740186968742 ], [ 2.025356985865125, 48.937513493600107 ], [ 2.025421551940877, 48.937462383717516 ], [ 2.025437761257918, 48.937471219381798 ], [ 2.025408348604289, 48.937494502156895 ], [ 2.025484208205963, 48.937535853024855 ], [ 2.025527070051448, 48.937501924022563 ], [ 2.025548682474129, 48.937513704898628 ], [ 2.025617551129125, 48.937459189134188 ], [ 2.025369224404635, 48.937323826559542 ], [ 2.025382780187209, 48.937313818019327 ], [ 2.025322344737827, 48.937281490388422 ], [ 2.025309805228059, 48.937291416583427 ], [ 2.025245079490008, 48.937256134576756 ], [ 2.02517621083766, 48.93731065056086 ] ] ] ] } },
{ "type": "Feature", "properties": { "id": null, "CLE_PRIMAI": null, "id-lot": "L5" }, "geometry": { "type": "MultiPolygon", "coordinates": [ [ [ [ 2.025384750880219, 48.937663319582128 ], [ 2.025442948478268, 48.937617251065625 ], [ 2.02531057214855, 48.937545093319947 ], [ 2.025252374791341, 48.937591161888975 ], [ 2.025285118069747, 48.93760901013286 ], [ 2.025269515015813, 48.937621361328326 ], [ 2.025236771737104, 48.937603513089073 ], [ 2.02513015086796, 48.937687912873578 ], [ 2.025162886952464, 48.937705757161162 ], [ 2.025147283900822, 48.937718108330856 ], [ 2.025114547816278, 48.937700264047741 ], [ 2.025007926947135, 48.937784663668637 ], [ 2.025040655837474, 48.937802504000139 ], [ 2.025025052781036, 48.937814855149696 ], [ 2.024992323890644, 48.93779701482265 ], [ 2.024942824546852, 48.937836197767588 ], [ 2.0248857030215, 48.937881414279957 ], [ 2.024918446325639, 48.937899262434854 ], [ 2.024902843272232, 48.937911613558065 ], [ 2.024870098967194, 48.937893766200176 ], [ 2.024817731096784, 48.937935219746905 ], [ 2.024950107185665, 48.938007376942672 ], [ 2.025002476056388, 48.937965922663764 ], [ 2.024956874332375, 48.937941065503139 ], [ 2.024972477385782, 48.937928714387198 ], [ 2.025018079110377, 48.93795357155355 ], [ 2.025124699979521, 48.937869172218235 ], [ 2.025079083867059, 48.937844307166536 ], [ 2.025094686923921, 48.937831956023913 ], [ 2.02514030303601, 48.937856821082065 ], [ 2.025246923905157, 48.937772421583176 ], [ 2.025201314986845, 48.93774756040478 ], [ 2.025216918038912, 48.937735209242035 ], [ 2.025262526956838, 48.937760070426869 ], [ 2.025369147825984, 48.937675670764378 ], [ 2.025323546101836, 48.937650813459307 ], [ 2.025339149156194, 48.937638462270804 ], [ 2.025384750880219, 48.937663319582128 ] ] ] ] } },
{ "type": "Feature", "properties": { "id": 25, "CLE_PRIMAI": "25", "id-lot": "L5" }, "geometry": { "type": "MultiPolygon", "coordinates": [ [ [ [ 2.025596852263242, 48.938046476171834 ], [ 2.025556316873254, 48.937909550233918 ], [ 2.025334833119575, 48.937936873076033 ], [ 2.025374693976587, 48.938072928924228 ], [ 2.025596852263242, 48.938046476171834 ] ] ] ] } },
{ "type": "Feature", "properties": { "id": null, "CLE_PRIMAI": null, "id-lot": null }, "geometry": { "type": "MultiPolygon", "coordinates": [ [ [ [ 2.024770762011887, 48.938149343172547 ], [ 2.024850750081413, 48.938086026186554 ], [ 2.024805148348936, 48.938061169093217 ], [ 2.024820751416815, 48.938048817995544 ], [ 2.024866353138342, 48.938073675104484 ], [ 2.024918722009028, 48.938032220880551 ], [ 2.024786345920433, 48.937960063720844 ], [ 2.024733977049466, 48.938001518004519 ], [ 2.02476596392466, 48.938018953792024 ], [ 2.024750360856779, 48.938031304897081 ], [ 2.024718372811515, 48.938013869966881 ], [ 2.024638385923012, 48.938077186181971 ], [ 2.024770762011887, 48.938149343172547 ] ] ] ] } },
{ "type": "Feature", "properties": { "id": null, "CLE_PRIMAI": null, "id-lot": null }, "geometry": { "type": "MultiPolygon", "coordinates": [ [ [ [ 2.024554028197408, 48.938307299386182 ], [ 2.024723712379549, 48.938171883661319 ], [ 2.024620726972463, 48.938115749303137 ], [ 2.024590419555517, 48.938139740755823 ], [ 2.024576371482005, 48.938132083281765 ], [ 2.024606678037992, 48.938108093214503 ], [ 2.024491591893975, 48.938045360752966 ], [ 2.024457530524206, 48.938072323180293 ], [ 2.024473377746541, 48.938083613564245 ], [ 2.024370689885756, 48.938161286533614 ], [ 2.024385818581634, 48.938169533038213 ], [ 2.024351384255882, 48.938196790538136 ], [ 2.024554028197408, 48.938307299386182 ] ] ] ] } },
{ "type": "Feature", "properties": { "id": null, "CLE_PRIMAI": null, "id-lot": null }, "geometry": { "type": "MultiPolygon", "coordinates": [ [ [ [ 2.024184344736248, 48.938559066616335 ], [ 2.024227703098064, 48.938542250574642 ], [ 2.024211643644592, 48.938524384205252 ], [ 2.024318966000142, 48.938482762526931 ], [ 2.024299340236685, 48.938460927457861 ], [ 2.024375024234023, 48.938431574229021 ], [ 2.024358987399543, 48.938413732081528 ], [ 2.024454728144489, 48.938376600019616 ], [ 2.02440383081065, 48.938319890439494 ], [ 2.024294307957869, 48.938259477516553 ], [ 2.024025735602557, 48.93847266515381 ], [ 2.024184344736248, 48.938559066616335 ] ] ] ] } },
{ "type": "Feature", "properties": { "id": null, "CLE_PRIMAI": null, "id-lot": null }, "geometry": { "type": "MultiPolygon", "coordinates": [ [ [ [ 2.02365152746228, 48.938986716876251 ], [ 2.023697427808242, 48.938968767689659 ], [ 2.023681722166015, 48.938951295054636 ], [ 2.023759390768789, 48.938921172473911 ], [ 2.023742151946259, 48.938901994146633 ], [ 2.023817826348404, 48.938872645030365 ], [ 2.023801784362321, 48.93885479817488 ], [ 2.023877463413093, 48.938825446918514 ], [ 2.023861424000474, 48.938807602910337 ], [ 2.023931653274658, 48.938780365481897 ], [ 2.023908014945443, 48.938754033260729 ], [ 2.023998942779882, 48.938718769858191 ], [ 2.023983005866264, 48.938701038983666 ], [ 2.024058676830798, 48.938671690952482 ], [ 2.024042617738152, 48.938653825029739 ], [ 2.024139180982703, 48.938616374148936 ], [ 2.024093386848655, 48.938565428110138 ], [ 2.023983925448976, 48.938505768430119 ], [ 2.023487506945177, 48.938897987551705 ], [ 2.02365152746228, 48.938986716876251 ] ] ] ] } },
{ "type": "Feature", "properties": { "id": null, "CLE_PRIMAI": null, "id-lot": null }, "geometry": { "type": "MultiPolygon", "coordinates": [ [ [ [ 2.023377683622217, 48.939241980088369 ], [ 2.023427115039188, 48.939202522082084 ], [ 2.023402609655772, 48.93918927639325 ], [ 2.02342545159087, 48.939171043090738 ], [ 2.023449957023757, 48.939184288772545 ], [ 2.02355917013446, 48.93909711061179 ], [ 2.023534664744802, 48.93908386489997 ], [ 2.023557506679899, 48.939065631558968 ], [ 2.023581995167091, 48.939078868105796 ], [ 2.023631443512255, 48.939039419119851 ], [ 2.023499808368375, 48.938968267253784 ], [ 2.0232460484639, 48.939170828519238 ], [ 2.023377683622217, 48.939241980088369 ] ] ] ] } },
{ "type": "Feature", "properties": { "id": null, "CLE_PRIMAI": null, "id-lot": null }, "geometry": { "type": "MultiPolygon", "coordinates": [ [ [ [ 2.022991775675163, 48.939618211808927 ], [ 2.023059054574304, 48.939564960147266 ], [ 2.023007840160408, 48.939537201997773 ], [ 2.02305807458773, 48.939497103223651 ], [ 2.023044306487645, 48.93948966131736 ], [ 2.023073656705487, 48.939466229429954 ], [ 2.023087430120319, 48.93947367066373 ], [ 2.023143016219721, 48.939429297349811 ], [ 2.023118512781691, 48.939416052781063 ], [ 2.02314135471679, 48.9393978195614 ], [ 2.023165858179961, 48.939411064114935 ], [ 2.023219653913476, 48.939368128017236 ], [ 2.023275073274622, 48.93932388743459 ], [ 2.023250567864307, 48.939310641771833 ], [ 2.023273409799406, 48.939292408513644 ], [ 2.023297913241944, 48.939305653083998 ], [ 2.023354992031821, 48.939260235971915 ], [ 2.023222848862866, 48.939189348883851 ], [ 2.022955884199674, 48.939402448191409 ], [ 2.022999812355639, 48.93942620502748 ], [ 2.02297036759731, 48.939449708833564 ], [ 2.022827430445821, 48.939372440510859 ], [ 2.022710186977854, 48.939466028263809 ], [ 2.022836603491871, 48.939534383645587 ], [ 2.022940831140411, 48.939590690753988 ], [ 2.022991775675163, 48.939618211808927 ] ] ] ] } },
{ "type": "Feature", "properties": { "id": null, "CLE_PRIMAI": null, "id-lot": null }, "geometry": { "type": "MultiPolygon", "coordinates": [ [ [ [ 2.023263125391293, 48.939991767405459 ], [ 2.023362899368021, 48.939912621969569 ], [ 2.023039162804822, 48.939734800540322 ], [ 2.023039162804822, 48.939734800540322 ], [ 2.022976046332065, 48.939742291888848 ], [ 2.022571754574556, 48.940062315154655 ], [ 2.022579329647459, 48.940115035091452 ], [ 2.023016862132884, 48.940351982368398 ], [ 2.023128987281881, 48.94026303993401 ], [ 2.023114388857459, 48.940255096233614 ], [ 2.023136151688829, 48.940237833009569 ], [ 2.022864676466881, 48.940090176950534 ], [ 2.023100247780296, 48.939903177354523 ], [ 2.023263125391293, 48.939991767405459 ] ] ] ] } },
{ "type": "Feature", "properties": { "id": 48, "CLE_PRIMAI": "48", "id-lot": "L10" }, "geometry": { "type": "MultiPolygon", "coordinates": [ [ [ [ 2.024064419806147, 48.94010670023156 ], [ 2.024145739128498, 48.940037341474003 ], [ 2.024077660489927, 48.940000233191029 ], [ 2.02399260236331, 48.940067559318337 ], [ 2.024064419806147, 48.940106705507127 ], [ 2.024064419806147, 48.94010670023156 ] ] ] ] } },
{ "type": "Feature", "properties": { "id": 49, "CLE_PRIMAI": "49", "id-lot": "l10" }, "geometry": { "type": "MultiPolygon", "coordinates": [ [ [ [ 2.023855639868588, 48.940046516797338 ], [ 2.023940700167539, 48.939979191825778 ], [ 2.023800220685765, 48.939902619179165 ], [ 2.023715162738737, 48.939969945295985 ], [ 2.023855639868588, 48.940046516797338 ] ] ] ] } },
{ "type": "Feature", "properties": { "id": 50, "CLE_PRIMAI": "50", "id-lot": "l10" }, "geometry": { "type": "MultiPolygon", "coordinates": [ [ [ [ 2.023629362102758, 48.939923176646289 ], [ 2.023714420229323, 48.939855850324207 ], [ 2.023644180549379, 48.939817563714236 ], [ 2.023559122422808, 48.939884890087946 ], [ 2.023629362102758, 48.939923176646289 ] ] ] ] } },
{ "type": "Feature", "properties": { "id": 56, "CLE_PRIMAI": "56", "id-lot": "L10" }, "geometry": { "type": "MultiPolygon", "coordinates": [ [ [ [ 2.023467466683989, 48.93983719633114 ], [ 2.023593421231455, 48.939737498934655 ], [ 2.023643087700419, 48.939698186145577 ], [ 2.02353740399743, 48.939640579330081 ], [ 2.02349087611886, 48.93967740785591 ], [ 2.023473768980478, 48.939668083106234 ], [ 2.023391246298256, 48.939733401625254 ], [ 2.023408354305897, 48.939742726836535 ], [ 2.023361782981001, 48.939779589676085 ], [ 2.023467466683989, 48.93983719633114 ] ] ] ] } },
{ "type": "Feature", "properties": { "id": 57, "CLE_PRIMAI": "57", "id-lot": "L10" }, "geometry": { "type": "MultiPolygon", "coordinates": [ [ [ [ 2.023680715624026, 48.939668402275686 ], [ 2.023856314917306, 48.939529408814636 ], [ 2.023750631214317, 48.939471801804338 ], [ 2.023704081612584, 48.939508647649347 ], [ 2.023687045665216, 48.939499361544684 ], [ 2.023604544706503, 48.939564663090046 ], [ 2.02362472011314, 48.939571465342311 ], [ 2.023575031921034, 48.939610795425814 ], [ 2.023680715624018, 48.939668402275686 ], [ 2.023680715624026, 48.939668402275686 ] ] ] ] } },
{ "type": "Feature", "properties": { "id": 55, "CLE_PRIMAI": "55", "id-lot": "L10" }, "geometry": { "type": "MultiPolygon", "coordinates": [ [ [ [ 2.02322706629444, 48.939706125957485 ], [ 2.023287148039703, 48.939658569159427 ], [ 2.023230298311482, 48.939627581216079 ], [ 2.023253611704083, 48.939609127794078 ], [ 2.023275324336995, 48.939620951400407 ], [ 2.023332265437814, 48.939575880371862 ], [ 2.023367392406449, 48.939595036805876 ], [ 2.023409810113527, 48.939561461644267 ], [ 2.0233529723581, 48.939530480044496 ], [ 2.023376287600826, 48.93951202512212 ], [ 2.023397978428508, 48.939523868410085 ], [ 2.023458060159012, 48.939476311383217 ], [ 2.023490066452999, 48.939497935570998 ], [ 2.023532480205106, 48.939464363391401 ], [ 2.023475642608127, 48.939433381689149 ], [ 2.023498965636125, 48.939414920568538 ], [ 2.023520656620853, 48.93942676375741 ], [ 2.023580744632654, 48.939379201655044 ], [ 2.023494312263403, 48.939332082447812 ], [ 2.023434228826093, 48.939379640985273 ], [ 2.023454203391334, 48.939390551223127 ], [ 2.023391584854938, 48.939440116404619 ], [ 2.023371636350229, 48.939429185460853 ], [ 2.023311554779507, 48.939476742450275 ], [ 2.023331547881581, 48.939487637998717 ], [ 2.023268957821683, 48.939537183684031 ], [ 2.023248964153631, 48.939526285364906 ], [ 2.023188880785681, 48.939573843755134 ], [ 2.023208852685675, 48.939584756027557 ], [ 2.023140458257976, 48.93963889278168 ], [ 2.023140389453521, 48.939658872971165 ], [ 2.023140389453521, 48.939658872971165 ], [ 2.02322706629444, 48.939706125957485 ] ] ] ] } },
{ "type": "Feature", "properties": { "id": 51, "CLE_PRIMAI": "51", "id-lot": "L10" }, "geometry": { "type": "MultiPolygon", "coordinates": [ [ [ [ 2.024282547138621, 48.939920745648983 ], [ 2.024365754624774, 48.939849836426227 ], [ 2.024294823725465, 48.939811173038002 ], [ 2.024207839915968, 48.939880023662361 ], [ 2.024282547138621, 48.939920745648983 ] ] ] ] } },
{ "type": "Feature", "properties": { "id": 52, "CLE_PRIMAI": "52", "id-lot": "L10" }, "geometry": { "type": "MultiPolygon", "coordinates": [ [ [ [ 2.024166675784367, 48.939857674234297 ], [ 2.024253656778691, 48.939788807464794 ], [ 2.024181648273964, 48.939749556641495 ], [ 2.024094667329063, 48.939818405083443 ], [ 2.024166675784367, 48.939857674234297 ] ] ] ] } },
{ "type": "Feature", "properties": { "id": 53, "CLE_PRIMAI": "53", "id-lot": "L10" }, "geometry": { "type": "MultiPolygon", "coordinates": [ [ [ [ 2.024053543430077, 48.939795989041485 ], [ 2.024140524374977, 48.939727140568635 ], [ 2.024068515870246, 48.939687889696849 ], [ 2.023981534925341, 48.939756738223835 ], [ 2.024053543430077, 48.939795989041485 ] ] ] ] } },
{ "type": "Feature", "properties": { "id": 54, "CLE_PRIMAI": "54", "id-lot": "L10" }, "geometry": { "type": "MultiPolygon", "coordinates": [ [ [ [ 2.023940401855673, 48.939734317155384 ], [ 2.024027382800582, 48.939665468597454 ], [ 2.023955374295847, 48.939626217677166 ], [ 2.023868393350951, 48.939695066289232 ], [ 2.023940401855673, 48.939734317155384 ] ] ] ] } },
{ "type": "Feature", "properties": { "id": 58, "CLE_PRIMAI": "58", "id-lot": null }, "geometry": { "type": "MultiPolygon", "coordinates": [ [ [ [ 2.024465707032969, 48.939763877472039 ], [ 2.024553143896273, 48.939690095612946 ], [ 2.024699156306674, 48.939565663540655 ], [ 2.024689563667277, 48.939509476673358 ], [ 2.024534810078559, 48.939425754791415 ], [ 2.024408380569831, 48.939525828761028 ], [ 2.024463229815257, 48.939555748908212 ], [ 2.024435019564437, 48.939578106667554 ], [ 2.02441137068056, 48.939565214755639 ], [ 2.024288385030337, 48.939665423401514 ], [ 2.024465707032969, 48.939763877472039 ] ] ] ] } },
{ "type": "Feature", "properties": { "id": 59, "CLE_PRIMAI": "59", "id-lot": "L10" }, "geometry": { "type": "MultiPolygon", "coordinates": [ [ [ [ 2.024104967220079, 48.93956724286479 ], [ 2.024385906805805, 48.93934525456622 ], [ 2.024173740612104, 48.93923010625744 ], [ 2.024048528442071, 48.939330358409734 ], [ 2.024114235763481, 48.939365493524313 ], [ 2.023960057357394, 48.939488254154384 ], [ 2.024104967220079, 48.93956724286479 ] ] ] ] } },
{ "type": "Feature", "properties": { "id": 60, "CLE_PRIMAI": "60", "id-lot": "L10" }, "geometry": { "type": "MultiPolygon", "coordinates": [ [ [ [ 2.023638751174092, 48.939262550342519 ], [ 2.023706937768661, 48.939299718254482 ], [ 2.023724872566849, 48.939285522098423 ], [ 2.023780415957376, 48.939315798303703 ], [ 2.023982630900032, 48.939155736449955 ], [ 2.024003190213896, 48.939138797836705 ], [ 2.024003190213896, 48.939138797836705 ], [ 2.023877178101966, 48.939070093371036 ], [ 2.023820798168577, 48.939073609151485 ], [ 2.023820798168577, 48.939073609151485 ], [ 2.023629912673368, 48.939224770658207 ], [ 2.023663415924268, 48.939243027127475 ], [ 2.023638751174092, 48.939262550342519 ] ] ] ] } },
{ "type": "Feature", "properties": { "id": 61, "CLE_PRIMAI": "61", "id-lot": "L11" }, "geometry": { "type": "MultiPolygon", "coordinates": [ [ [ [ 2.025027792004721, 48.939259335461593 ], [ 2.025056888444022, 48.939217697855149 ], [ 2.024984379968654, 48.939178523499372 ], [ 2.02503952263752, 48.939134486259228 ], [ 2.024858533589371, 48.939039616404067 ], [ 2.02481557755788, 48.939074947256074 ], [ 2.02489925190777, 48.939120827910472 ], [ 2.024848303818683, 48.939160918002429 ], [ 2.025027792004721, 48.939259335461593 ] ] ] ] } },
{ "type": "Feature", "properties": { "id": 62, "CLE_PRIMAI": "62", "id-lot": "L11" }, "geometry": { "type": "MultiPolygon", "coordinates": [ [ [ [ 2.025106595437464, 48.939146566039106 ], [ 2.025135691876763, 48.939104928338622 ], [ 2.025063183401396, 48.93906575389434 ], [ 2.025118326070261, 48.939021716554677 ], [ 2.024937337022112, 48.938926846485181 ], [ 2.024894380990623, 48.938962177417018 ], [ 2.02497805534051, 48.939008058175069 ], [ 2.024927107251424, 48.939048148357593 ], [ 2.025106595437464, 48.939146566039106 ] ] ] ] } },
{ "type": "Feature", "properties": { "id": 63, "CLE_PRIMAI": "63", "id-lot": "L11" }, "geometry": { "type": "MultiPolygon", "coordinates": [ [ [ [ 2.025186038491753, 48.939032881046444 ], [ 2.02521513493105, 48.938991243251088 ], [ 2.025142626455683, 48.938952068717583 ], [ 2.025197769124549, 48.938908031277641 ], [ 2.025016780076399, 48.938813160992069 ], [ 2.024973824044909, 48.938848492004368 ], [ 2.025057498394799, 48.938894372866905 ], [ 2.025006550305712, 48.938934463140761 ], [ 2.025186038491753, 48.939032881046444 ] ] ] ] } },
{ "type": "Feature", "properties": { "id": 65, "CLE_PRIMAI": "65", "id-lot": "L11" }, "geometry": { "type": "MultiPolygon", "coordinates": [ [ [ [ 2.025282050489654, 48.93883115585998 ], [ 2.025389820210182, 48.938741361475344 ], [ 2.024960790699835, 48.938509294440898 ], [ 2.024874315368201, 48.938578274232142 ], [ 2.024879649402636, 48.938614764689802 ], [ 2.025282050489654, 48.93883115585998 ] ] ] ] } },
{ "type": "Feature", "properties": { "id": 67, "CLE_PRIMAI": "67", "id-lot": "L11" }, "geometry": { "type": "MultiPolygon", "coordinates": [ [ [ [ 2.024574695414966, 48.93870752369417 ], [ 2.024859576859031, 48.938481021482332 ], [ 2.024856587538563, 48.938453344785955 ], [ 2.02473001006194, 48.938384461993927 ], [ 2.024688421327741, 48.938388320650319 ], [ 2.024402308750846, 48.938614259749272 ], [ 2.024574695414966, 48.93870752369417 ] ] ] ] } },
{ "type": "Feature", "properties": { "id": 66, "CLE_PRIMAI": "66", "id-lot": "L11" }, "geometry": { "type": "MultiPolygon", "coordinates": [ [ [ [ 2.024138517906229, 48.939056129601575 ], [ 2.02449520577545, 48.938771933754488 ], [ 2.024321444409663, 48.938678029378785 ], [ 2.02398835725218, 48.938940973826917 ], [ 2.02398835725218, 48.938940973826917 ], [ 2.023993848211014, 48.938977868182128 ], [ 2.024138517906229, 48.939056129601575 ] ] ] ] } },
{ "type": "Feature", "properties": { "id": 64, "CLE_PRIMAI": "64", "id-lot": "L11" }, "geometry": { "type": "MultiPolygon", "coordinates": [ [ [ [ 2.024220452946605, 48.939099851739805 ], [ 2.024878060860864, 48.939456151707354 ], [ 2.024966588238644, 48.939344395057589 ], [ 2.024966588238644, 48.939344395057589 ], [ 2.024866994700413, 48.939291202120295 ], [ 2.024816618226657, 48.939331288729825 ], [ 2.024787956001614, 48.939315747645928 ], [ 2.024838332475369, 48.939275661023935 ], [ 2.024720857925919, 48.939211964477693 ], [ 2.024671640673104, 48.939252869776404 ], [ 2.024642978194955, 48.939237328530858 ], [ 2.024693029462592, 48.939196875435783 ], [ 2.024577060299304, 48.939133705064783 ], [ 2.024525883732316, 48.939174029125027 ], [ 2.024497221254165, 48.939158487854932 ], [ 2.024547981343437, 48.93911822793094 ], [ 2.024431587715937, 48.939055018036015 ], [ 2.024379538937482, 48.939094870375214 ], [ 2.024350876459332, 48.939079329080464 ], [ 2.024401642301812, 48.939038880340867 ], [ 2.024338629653979, 48.93900502127287 ], [ 2.024220452946605, 48.939099851739805 ] ] ] ] } },
{ "type": "Feature", "properties": { "id": null, "CLE_PRIMAI": null, "id-lot": null }, "geometry": { "type": "MultiPolygon", "coordinates": [ [ [ [ 2.032060528312541, 48.941269687573424 ], [ 2.03221947112471, 48.941287003508116 ], [ 2.03221947112471, 48.941287003508116 ], [ 2.032278118137095, 48.94124055570812 ], [ 2.03225651399713, 48.941229490368997 ], [ 2.03230010708498, 48.941194761889385 ], [ 2.032321017770098, 48.941206086159411 ], [ 2.032436432256772, 48.941114140990528 ], [ 2.032420180438431, 48.941105339728828 ], [ 2.032440728127226, 48.941088970345099 ], [ 2.032456980734282, 48.941097770989337 ], [ 2.032651181812483, 48.940943059900405 ], [ 2.032634929984671, 48.94093425860811 ], [ 2.032655118586829, 48.940918175244683 ], [ 2.03267235298809, 48.940926379991119 ], [ 2.03267235298809, 48.940926379991119 ], [ 2.032839312181121, 48.940793184749495 ], [ 2.032502545606049, 48.940579091485503 ], [ 2.032392253156609, 48.940662874279326 ], [ 2.032581332963642, 48.940765272246935 ], [ 2.032604747871064, 48.940778597361785 ], [ 2.032604747871064, 48.940778597361785 ], [ 2.032140597933212, 48.941132222965393 ], [ 2.031982653880029, 48.941047708270794 ], [ 2.031994052008753, 48.941038627908711 ], [ 2.031942533724995, 48.941005256867513 ], [ 2.031814124639771, 48.941103699052427 ], [ 2.031814124639771, 48.941103699052427 ], [ 2.032060019018972, 48.941269299438837 ], [ 2.032060528312541, 48.941269687573424 ] ] ] ] } },
{ "type": "Feature", "properties": { "id": null, "CLE_PRIMAI": null, "id-lot": null }, "geometry": { "type": "MultiPolygon", "coordinates": [ [ [ [ 2.032917308887507, 48.940731047571603 ], [ 2.033572117948161, 48.940208076175495 ], [ 2.033459212413026, 48.940150277080086 ], [ 2.033407258702508, 48.940192353609994 ], [ 2.033370435111611, 48.94017239297014 ], [ 2.033236904082606, 48.940278675384 ], [ 2.033272380199766, 48.940297905569821 ], [ 2.033160257198233, 48.940387210711819 ], [ 2.033124734444943, 48.940367955280841 ], [ 2.032991203401795, 48.940474237289529 ], [ 2.033027681634545, 48.940494247179402 ], [ 2.032917007000877, 48.940582424601068 ], [ 2.032852269227873, 48.940547367989353 ], [ 2.032756599602333, 48.940623590448737 ], [ 2.032917308887507, 48.940731047571603 ] ] ] ] } },
{ "type": "Feature", "properties": { "id": null, "CLE_PRIMAI": null, "id-lot": null }, "geometry": { "type": "MultiPolygon", "coordinates": [ [ [ [ 2.032623312658146, 48.940534222629275 ], [ 2.033136569200279, 48.940125295794239 ], [ 2.033272843188073, 48.940198812916783 ], [ 2.033383610745533, 48.940110648688815 ], [ 2.033133167045368, 48.939982646509584 ], [ 2.033133167045368, 48.939982646509584 ], [ 2.033043714537127, 48.939990021075289 ], [ 2.032498706933544, 48.940450580032362 ], [ 2.032623312658146, 48.940534222629275 ] ] ] ] } },
{ "type": "Feature", "properties": { "id": null, "CLE_PRIMAI": null, "id-lot": null }, "geometry": { "type": "MultiPolygon", "coordinates": [ [ [ [ 2.032358693211112, 48.940195053593293 ], [ 2.032158680053483, 48.94009132724301 ], [ 2.032283992421252, 48.939985445543222 ], [ 2.032322674248383, 48.940005201781005 ], [ 2.032387924667117, 48.939950080746719 ], [ 2.032340134408528, 48.939925672468476 ], [ 2.032403660906029, 48.939872007651523 ], [ 2.032257852814753, 48.939797537834473 ], [ 2.031945202697082, 48.940149677490453 ], [ 2.032335331622674, 48.94035146009881 ], [ 2.032441268437109, 48.940342963731361 ], [ 2.032917246468896, 48.939939672720037 ], [ 2.032917246468896, 48.939939672720037 ], [ 2.032903018293758, 48.939870698822013 ], [ 2.032407340210688, 48.939629783813892 ], [ 2.032304626696766, 48.939745113716768 ], [ 2.032662978592483, 48.939919815157559 ], [ 2.032635714084685, 48.93994283282742 ], [ 2.032649112088535, 48.939949687864051 ], [ 2.032358693211112, 48.940195053593293 ] ] ] ] } },
{ "type": "Feature", "properties": { "id": null, "CLE_PRIMAI": null, "id-lot": null }, "geometry": { "type": "MultiPolygon", "coordinates": [ [ [ [ 2.03279946224698, 48.939689012535624 ], [ 2.032837621019433, 48.939539966886819 ], [ 2.032604995158937, 48.939409996940789 ], [ 2.032475417226826, 48.939532706014418 ], [ 2.03279946224698, 48.939689012535624 ] ] ] ] } },
{ "type": "Feature", "properties": { "id": null, "CLE_PRIMAI": null, "id-lot": null }, "geometry": { "type": "MultiPolygon", "coordinates": [ [ [ [ 2.03258749588109, 48.939357180265553 ], [ 2.032671442315168, 48.939377029964874 ], [ 2.032690243462722, 48.939342790097072 ], [ 2.032736217685812, 48.939353787811747 ], [ 2.032755020663964, 48.939319835981706 ], [ 2.032708790048708, 48.939308924220519 ], [ 2.032727515812982, 48.939274731142937 ], [ 2.032773759654552, 48.939285587666127 ], [ 2.032792285745162, 48.939251719375989 ], [ 2.032743435445401, 48.939240348037053 ], [ 2.032762143164635, 48.939206147278171 ], [ 2.03281099528681, 48.939217514930483 ], [ 2.032829254223809, 48.939183742732972 ], [ 2.032783028803514, 48.93917283308555 ], [ 2.0328028874395, 48.939136903027126 ], [ 2.032721243228379, 48.939117633956101 ], [ 2.032701566337488, 48.939153553823054 ], [ 2.032661076082873, 48.939143911322446 ], [ 2.032642481107638, 48.939177743150886 ], [ 2.032683091558669, 48.939187327668591 ], [ 2.032664363432914, 48.939221525118086 ], [ 2.032623812348608, 48.939211954767138 ], [ 2.032605285032677, 48.939245825265054 ], [ 2.032645785386189, 48.939255542750672 ], [ 2.032627101107741, 48.939289644474542 ], [ 2.032586512052681, 48.939280064880414 ], [ 2.032567984714996, 48.939313935326844 ], [ 2.032606198381712, 48.939322987714363 ], [ 2.03258749588109, 48.939357180265553 ] ] ] ] } },
{ "type": "Feature", "properties": { "id": null, "CLE_PRIMAI": null, "id-lot": null }, "geometry": { "type": "MultiPolygon", "coordinates": [ [ [ [ 2.032372228594244, 48.939484112109177 ], [ 2.032453080474028, 48.939336239202099 ], [ 2.03207457776652, 48.939165392049389 ], [ 2.032197420570356, 48.938982489634725 ], [ 2.032598003150632, 48.939043817393255 ], [ 2.032689925420816, 48.938902958982325 ], [ 2.03214218835938, 48.938819022693927 ], [ 2.03214218835938, 48.938819022693927 ], [ 2.032064375178811, 48.938844541517199 ], [ 2.031823704818984, 48.939202785239132 ], [ 2.031823704818984, 48.939202785239132 ], [ 2.031841753937429, 48.939244600137101 ], [ 2.032372228594244, 48.939484112109177 ] ] ] ] } },
{ "type": "Feature", "properties": { "id": null, "CLE_PRIMAI": null, "id-lot": null }, "geometry": { "type": "MultiPolygon", "coordinates": [ [ [ [ 2.032722558547905, 48.939061102271651 ], [ 2.033071916899889, 48.939099691202259 ], [ 2.033066538082484, 48.939164573563453 ], [ 2.033026540226051, 48.939160155274074 ], [ 2.032985214468046, 48.939310388059049 ], [ 2.033019271802315, 48.939314149986458 ], [ 2.033002970415697, 48.939377822453693 ], [ 2.032968920449934, 48.939374061203985 ], [ 2.032930364600209, 48.939524599185674 ], [ 2.03296220780889, 48.939528210190332 ], [ 2.032948328170381, 48.939582423197756 ], [ 2.032916461673647, 48.939578903157923 ], [ 2.032902197218737, 48.93963461640913 ], [ 2.032877272959263, 48.939631863226282 ], [ 2.032865593905002, 48.939677480805486 ], [ 2.032878509346817, 48.939727141656768 ], [ 2.032984500770776, 48.939778267592779 ], [ 2.033049082751934, 48.939772936027289 ], [ 2.033091270282879, 48.939702091306586 ], [ 2.033091270282879, 48.939702091306586 ], [ 2.033263686075699, 48.939027788607902 ], [ 2.033219309011818, 48.938983998484083 ], [ 2.033219309011818, 48.938983998484083 ], [ 2.032799778636861, 48.938919750219782 ], [ 2.032722558547905, 48.939061102271651 ] ] ] ] } },
{ "type": "Feature", "properties": { "id": null, "CLE_PRIMAI": null, "id-lot": null }, "geometry": { "type": "MultiPolygon", "coordinates": [ [ [ [ 2.033676118343218, 48.940125855636282 ], [ 2.034244449397711, 48.939673384005985 ], [ 2.034184781180707, 48.93959522596073 ], [ 2.034085307197037, 48.939585301850855 ], [ 2.03401855431707, 48.939638345561811 ], [ 2.034001237471842, 48.939628966173792 ], [ 2.033941341384795, 48.939676678436989 ], [ 2.033958675971474, 48.939686061708997 ], [ 2.033812192842389, 48.939802741694294 ], [ 2.033794812368363, 48.939793379720903 ], [ 2.033684055969973, 48.939881627989678 ], [ 2.033701374905861, 48.939891017143324 ], [ 2.033604036287908, 48.939968555096762 ], [ 2.033582462545063, 48.939957761189689 ], [ 2.033596417070611, 48.939945990789759 ], [ 2.03355958256963, 48.939927177666171 ], [ 2.033545671923398, 48.939938916093539 ], [ 2.033367556136187, 48.939847456460704 ], [ 2.033423787767812, 48.939800005506257 ], [ 2.033409839559317, 48.939707459888986 ], [ 2.033494795186797, 48.939598014527974 ], [ 2.033513124891848, 48.939528380752186 ], [ 2.033304378754512, 48.939507616645294 ], [ 2.033247713850985, 48.939728912396539 ], [ 2.033175425168452, 48.939869856594377 ], [ 2.033676136146294, 48.940125853922801 ], [ 2.033676118343218, 48.940125855636282 ] ] ] ] } },
{ "type": "Feature", "properties": { "id": null, "CLE_PRIMAI": null, "id-lot": null }, "geometry": { "type": "MultiPolygon", "coordinates": [ [ [ [ 2.033624733821192, 48.939673840620422 ], [ 2.033712446464098, 48.939718687423564 ], [ 2.033718484252594, 48.939713592416382 ], [ 2.033745099223319, 48.939727200475133 ], [ 2.03385113460612, 48.939637724354895 ], [ 2.033866812043515, 48.939563563602739 ], [ 2.033686829818438, 48.939545656412498 ], [ 2.033679455460357, 48.939580449473013 ], [ 2.033693143170245, 48.939586086415908 ], [ 2.033608610620628, 48.939657413958656 ], [ 2.033630823974458, 48.939668679334893 ], [ 2.033624733821192, 48.939673840620422 ] ] ] ] } },
{ "type": "Feature", "properties": { "id": null, "CLE_PRIMAI": null, "id-lot": null }, "geometry": { "type": "MultiPolygon", "coordinates": [ [ [ [ 2.03372051740187, 48.939474342134965 ], [ 2.03391705511755, 48.939493466617918 ], [ 2.033923118062412, 48.93946718133887 ], [ 2.033964812782305, 48.939471328758309 ], [ 2.033958604639754, 48.939498067342072 ], [ 2.034058658676923, 48.939508008933878 ], [ 2.034082415967835, 48.939404671955486 ], [ 2.034103264858542, 48.939406737325172 ], [ 2.034114996944607, 48.93935584881914 ], [ 2.034031692920713, 48.939347562462352 ], [ 2.034025385365404, 48.939374921791803 ], [ 2.033946203896672, 48.939367046920175 ], [ 2.03394990180313, 48.939350998637785 ], [ 2.033970772595553, 48.939353073592407 ], [ 2.03398250632047, 48.939302185176302 ], [ 2.033899202562778, 48.939293897656036 ], [ 2.03389288901755, 48.93932127910972 ], [ 2.033855962300593, 48.939317583582273 ], [ 2.033845800197117, 48.939361655784325 ], [ 2.033811231573036, 48.93935821722129 ], [ 2.033817523503808, 48.939330925470465 ], [ 2.033734218297977, 48.939322636705356 ], [ 2.033722486199213, 48.93937352524398 ], [ 2.033743269381744, 48.939375592570698 ], [ 2.03372051740187, 48.939474342134965 ] ] ] ] } },
{ "type": "Feature", "properties": { "id": null, "CLE_PRIMAI": null, "id-lot": null }, "geometry": { "type": "MultiPolygon", "coordinates": [ [ [ [ 2.033323045127471, 48.939434841779907 ], [ 2.033550999930807, 48.93945777504107 ], [ 2.033558494635844, 48.939428561928317 ], [ 2.033536245991893, 48.939426129017001 ], [ 2.033570923158941, 48.939290946660691 ], [ 2.033593051692026, 48.939293388009823 ], [ 2.033606492797484, 48.939241084107522 ], [ 2.0335843642644, 48.939238642755818 ], [ 2.033600159570053, 48.939176869253245 ], [ 2.03362232216981, 48.939179325281145 ], [ 2.03363250870029, 48.939140577487414 ], [ 2.034529057680817, 48.93923015159929 ], [ 2.034517975833758, 48.939278614385195 ], [ 2.034291255494815, 48.939406502391414 ], [ 2.034201614345359, 48.939522230768354 ], [ 2.034408493855564, 48.93954280533864 ], [ 2.034853331699554, 48.939188672176641 ], [ 2.034834550048236, 48.939156053561248 ], [ 2.034834550048236, 48.939156053561248 ], [ 2.033430738443956, 48.939016646648291 ], [ 2.033323045127471, 48.939434841779907 ] ] ] ] } },
{ "type": "Feature", "properties": { "id": 71, "CLE_PRIMAI": "71", "id-lot": "B1" }, "geometry": { "type": "MultiPolygon", "coordinates": [ [ [ [ 2.026506219666584, 48.945732901103689 ], [ 2.026701313542718, 48.945716990492727 ], [ 2.026607883419963, 48.945222819366315 ], [ 2.026412789543829, 48.945238730134825 ], [ 2.026506219666584, 48.945732901103689 ] ] ] ] } },
{ "type": "Feature", "properties": { "id": 72, "CLE_PRIMAI": "72", "id-lot": "B1" }, "geometry": { "type": "MultiPolygon", "coordinates": [ [ [ [ 2.026186153676079, 48.945632171131194 ], [ 2.026279446914738, 48.945518518841972 ], [ 2.025891887710991, 48.9453812900692 ], [ 2.02579859447233, 48.945494942670948 ], [ 2.026186153676079, 48.945632171131194 ], [ 2.026186153676079, 48.945632171131194 ], [ 2.026186153676079, 48.945632171131194 ], [ 2.026186153676079, 48.945632171131194 ] ] ] ] } },
{ "type": "Feature", "properties": { "id": 73, "CLE_PRIMAI": "73", "id-lot": "B1" }, "geometry": { "type": "MultiPolygon", "coordinates": [ [ [ [ 2.026234758862628, 48.945195205307996 ], [ 2.026326766497552, 48.945102486486775 ], [ 2.025946194452438, 48.94493958110337 ], [ 2.025851849874671, 48.945031299889784 ], [ 2.026234758862628, 48.945195205307996 ], [ 2.026234758862628, 48.945195205307996 ] ] ] ] } },
{ "type": "Feature", "properties": { "id": 74, "CLE_PRIMAI": "74", "id-lot": "B1" }, "geometry": { "type": "MultiPolygon", "coordinates": [ [ [ [ 2.025637107160331, 48.945437762508227 ], [ 2.025898331000293, 48.945183810686629 ], [ 2.025759086803768, 48.94512202631843 ], [ 2.025541770813345, 48.945332747665987 ], [ 2.025578407946568, 48.945416978007096 ], [ 2.025637107160331, 48.945437762508227 ] ] ] ] } },
{ "type": "Feature", "properties": { "id": 75, "CLE_PRIMAI": "75", "id-lot": "B2" }, "geometry": { "type": "MultiPolygon", "coordinates": [ [ [ [ 2.026629947932284, 48.945144307471068 ], [ 2.027053202634513, 48.945104493900047 ], [ 2.026954008252877, 48.9446846795935 ], [ 2.026759741379125, 48.944704480096902 ], [ 2.026828433321047, 48.944995201056543 ], [ 2.026602076100262, 48.945016493461907 ], [ 2.026629947932284, 48.945144307471068 ] ] ] ] } },
{ "type": "Feature", "properties": { "id": 77, "CLE_PRIMAI": "77", "id-lot": "B2" }, "geometry": { "type": "MultiPolygon", "coordinates": [ [ [ [ 2.026659494690671, 48.944656446952571 ], [ 2.026773956979087, 48.944575224803188 ], [ 2.026718844854325, 48.944541721598391 ], [ 2.026469943316868, 48.944430406113284 ], [ 2.026375612294645, 48.94452211265714 ], [ 2.026613610083517, 48.944628553293796 ], [ 2.026659494690671, 48.944656446952571 ] ] ] ] } },
{ "type": "Feature", "properties": { "id": 76, "CLE_PRIMAI": "76", "id-lot": "B2" }, "geometry": { "type": "MultiPolygon", "coordinates": [ [ [ [ 2.026150159108792, 48.944938991812187 ], [ 2.026407152005043, 48.944689150665347 ], [ 2.026267522678546, 48.944627194795991 ], [ 2.02600895565908, 48.94487856656864 ], [ 2.026150159108792, 48.944938991812187 ] ] ] ] } },
{ "type": "Feature", "properties": { "id": 78, "CLE_PRIMAI": "78", "id-lot": "B3" }, "geometry": { "type": "MultiPolygon", "coordinates": [ [ [ [ 2.026949906340477, 48.944576269045548 ], [ 2.027432224124246, 48.944528436750353 ], [ 2.027340212192797, 48.944117122757071 ], [ 2.02714570819132, 48.94413589243252 ], [ 2.027209281324495, 48.944420078867161 ], [ 2.026921185297291, 48.944447880020704 ], [ 2.026949906340477, 48.944576269045548 ] ] ] ] } },
{ "type": "Feature", "properties": { "id": 79, "CLE_PRIMAI": "79", "id-lot": "B3" }, "geometry": { "type": "MultiPolygon", "coordinates": [ [ [ [ 2.026672373368758, 48.944431308726138 ], [ 2.026861036676125, 48.944247893908376 ], [ 2.026721407349629, 48.944185937491206 ], [ 2.026532744042259, 48.944369352536675 ], [ 2.026672373368758, 48.944431308726138 ] ] ] ] } },
{ "type": "Feature", "properties": { "id": 80, "CLE_PRIMAI": "80", "id-lot": "B3" }, "geometry": { "type": "MultiPolygon", "coordinates": [ [ [ [ 2.02696850499877, 48.944143414982676 ], [ 2.027157168306136, 48.943959999106809 ], [ 2.027016176147488, 48.943899367262979 ], [ 2.026828875672272, 48.944081458435797 ], [ 2.02696850499877, 48.944143414982676 ] ] ] ] } },
{ "type": "Feature", "properties": { "id": 69, "CLE_PRIMAI": "69", "id-lot": "A1" }, "geometry": { "type": "MultiPolygon", "coordinates": [ [ [ [ 2.028225945065738, 48.944278767890687 ], [ 2.02861425246433, 48.94397609909872 ], [ 2.028324122184217, 48.943815529860352 ], [ 2.028238525255368, 48.943937006666708 ], [ 2.028337237536433, 48.943991637758735 ], [ 2.028075608473816, 48.944195566418323 ], [ 2.028225945065736, 48.944278767890687 ], [ 2.028225945065738, 48.944278767890687 ] ] ] ] } },
{ "type": "Feature", "properties": { "id": 70, "CLE_PRIMAI": "70", "id-lot": "A1" }, "geometry": { "type": "MultiPolygon", "coordinates": [ [ [ [ 2.028485502012844, 48.943735994077116 ], [ 2.028740890942633, 48.943877336370591 ], [ 2.029225839345761, 48.943500414049453 ], [ 2.028752800617572, 48.94335662367282 ], [ 2.028670235527502, 48.943473806603457 ], [ 2.028908952498377, 48.943546369683446 ], [ 2.028717356136559, 48.94369546152015 ], [ 2.028571094871914, 48.94361451452906 ], [ 2.028485502012844, 48.943735994077116 ] ] ] ] } },
{ "type": "Feature", "properties": { "id": 81, "CLE_PRIMAI": "81", "id-lot": "Halle SV" }, "geometry": { "type": "MultiPolygon", "coordinates": [ [ [ [ 2.027989642950523, 48.943504019416103 ], [ 2.028290729994114, 48.943595401431587 ], [ 2.028510534511466, 48.943282981870588 ], [ 2.028207489302578, 48.943188380782331 ], [ 2.028207489302578, 48.943188380782331 ], [ 2.027989642950523, 48.943504019416103 ] ] ] ] } },
{ "type": "Feature", "properties": { "id": 82, "CLE_PRIMAI": "82", "id-lot": "Groupe sco" }, "geometry": { "type": "MultiPolygon", "coordinates": [ [ [ [ 2.028271907730439, 48.940879433258452 ], [ 2.028589357752929, 48.940977983610978 ], [ 2.029098625927545, 48.940304425579846 ], [ 2.028697935028547, 48.940173751013944 ], [ 2.028554475344353, 48.940177337369825 ], [ 2.028404606728076, 48.940375606777323 ], [ 2.028540774644113, 48.940434767718926 ], [ 2.028429231774706, 48.940681676644012 ], [ 2.028347424333045, 48.940710956123354 ], [ 2.028271907730439, 48.940879433258452 ] ] ] ] } },
{ "type": "Feature", "properties": { "id": 92, "CLE_PRIMAI": "92", "id-lot": "P5" }, "geometry": { "type": "MultiPolygon", "coordinates": [ [ [ [ 2.031439591681598, 48.947586439082357 ], [ 2.03155582973448, 48.947534696003522 ], [ 2.03122492589258, 48.947214069820539 ], [ 2.031108687839698, 48.947265813231844 ], [ 2.031439591681598, 48.947586439082357 ] ] ] ] } },
{ "type": "Feature", "properties": { "id": 91, "CLE_PRIMAI": "91", "id-lot": "P4" }, "geometry": { "type": "MultiPolygon", "coordinates": [ [ [ [ 2.03071821251747, 48.947126785033419 ], [ 2.030922724129962, 48.947191717332316 ], [ 2.031222235477142, 48.947058383836101 ], [ 2.031228567671485, 48.947015770737089 ], [ 2.031144230946517, 48.946936948729146 ], [ 2.03071821251747, 48.947126785033419 ] ] ] ] } },
{ "type": "Feature", "properties": { "id": 90, "CLE_PRIMAI": "90", "id-lot": "P3'" }, "geometry": { "type": "MultiPolygon", "coordinates": [ [ [ [ 2.029686403873569, 48.946765085700221 ], [ 2.029773448116855, 48.946741781241656 ], [ 2.029915485623176, 48.946482346923439 ], [ 2.029731320897015, 48.946437145502678 ], [ 2.029571660279539, 48.946728654385517 ], [ 2.029686403873571, 48.9467650857002 ], [ 2.029686403873569, 48.946765085700221 ] ] ] ] } },
{ "type": "Feature", "properties": { "id": 89, "CLE_PRIMAI": "89", "id-lot": "P3'" }, "geometry": { "type": "MultiPolygon", "coordinates": [ [ [ [ 2.029367484511227, 48.946663828115419 ], [ 2.029453050095491, 48.946547584900514 ], [ 2.029394970736213, 48.946529144513718 ], [ 2.029453177440748, 48.946368877867513 ], [ 2.029267611456584, 48.94632333242717 ], [ 2.029167059501583, 48.946600192637824 ], [ 2.029367484511227, 48.946663828115419 ] ] ] ] } },
{ "type": "Feature", "properties": { "id": 88, "CLE_PRIMAI": "88", "id-lot": "P3" }, "geometry": { "type": "MultiPolygon", "coordinates": [ [ [ [ 2.028995905061139, 48.946543361225004 ], [ 2.029075155958907, 48.946518538243808 ], [ 2.029105132957904, 48.946434630607364 ], [ 2.028657839584173, 48.946292612998846 ], [ 2.028633881694351, 48.946138956914055 ], [ 2.028438312220923, 48.946152109866844 ], [ 2.028473451774164, 48.946377480336054 ], [ 2.028995905061139, 48.946543361225004 ] ] ] ] } },
{ "type": "Feature", "properties": { "id": 84, "CLE_PRIMAI": "84", "id-lot": "P2" }, "geometry": { "type": "MultiPolygon", "coordinates": [ [ [ [ 2.028751979748722, 48.946105187210449 ], [ 2.029158572946062, 48.946205048932207 ], [ 2.029205583981511, 48.946098439407677 ], [ 2.028811002987555, 48.946001527750752 ], [ 2.028751979748722, 48.946105187210449 ] ] ] ] } },
{ "type": "Feature", "properties": { "id": 85, "CLE_PRIMAI": "85", "id-lot": "P2" }, "geometry": { "type": "MultiPolygon", "coordinates": [ [ [ [ 2.028716930066798, 48.945810194069956 ], [ 2.02928753042887, 48.945909789636382 ], [ 2.029334417401943, 48.945803460826134 ], [ 2.028760210666539, 48.945703235570299 ], [ 2.028716930066798, 48.945810194069956 ] ] ] ] } },
{ "type": "Feature", "properties": { "id": 83, "CLE_PRIMAI": "83", "id-lot": "P2" }, "geometry": { "type": "MultiPolygon", "coordinates": [ [ [ [ 2.028605961136926, 48.946069324117055 ], [ 2.028674821594639, 48.945948387951098 ], [ 2.028563694325435, 48.945921094308424 ], [ 2.028526189060005, 48.945679801268987 ], [ 2.028330613308209, 48.945692914013009 ], [ 2.028380513866722, 48.946013952792818 ], [ 2.028605961136926, 48.946069324117055 ] ] ] ] } },
{ "type": "Feature", "properties": { "id": 86, "CLE_PRIMAI": "86", "id-lot": "P2'" }, "geometry": { "type": "MultiPolygon", "coordinates": [ [ [ [ 2.029317510304915, 48.946244084844054 ], [ 2.029981027412932, 48.946407048058688 ], [ 2.030038351550484, 48.946302971993084 ], [ 2.02936435252173, 48.946137433933849 ], [ 2.029317510304915, 48.946244084844054 ] ] ] ] } },
{ "type": "Feature", "properties": { "id": 87, "CLE_PRIMAI": "87", "id-lot": "P2'" }, "geometry": { "type": "MultiPolygon", "coordinates": [ [ [ [ 2.029923336261411, 48.946132225610121 ], [ 2.030109748538307, 48.946173345359256 ], [ 2.030174750355807, 48.946035697941717 ], [ 2.030107944398452, 48.945973263370512 ], [ 2.029705167736232, 48.945902960738948 ], [ 2.029654673703203, 48.94602774513352 ], [ 2.02994845992155, 48.946079023915253 ], [ 2.029923336261411, 48.946132225610121 ] ] ] ] } },
{ "type": "Feature", "properties": { "id": null, "CLE_PRIMAI": null, "id-lot": "P7C" }, "geometry": { "type": "MultiPolygon", "coordinates": [ [ [ [ 2.030827813900312, 48.946413177603368 ], [ 2.030977662673619, 48.946344548177848 ], [ 2.030656485923291, 48.946042135295869 ], [ 2.030784592740407, 48.945699372059323 ], [ 2.030571461999907, 48.945670244674332 ], [ 2.030454231066448, 48.945998543438158 ], [ 2.030482259818069, 48.946087516581564 ], [ 2.030827813900312, 48.946413177603368 ] ] ] ] } },
{ "type": "Feature", "properties": { "id": null, "CLE_PRIMAI": null, "id-lot": "P7C" }, "geometry": { "type": "MultiPolygon", "coordinates": [ [ [ [ 2.031247471873703, 48.94622958818011 ], [ 2.031345968311674, 48.94616353000908 ], [ 2.030961347375572, 48.945938462882943 ], [ 2.030867936271374, 48.946007319520753 ], [ 2.031247471873703, 48.94622958818011 ] ] ] ] } },
{ "type": "Feature", "properties": { "id": null, "CLE_PRIMAI": null, "id-lot": "P7B" }, "geometry": { "type": "MultiPolygon", "coordinates": [ [ [ [ 2.03152473177106, 48.94638654600125 ], [ 2.031619160743575, 48.946323231286541 ], [ 2.031415516987398, 48.946192224728556 ], [ 2.031321087990928, 48.946255539625561 ], [ 2.03152473177106, 48.94638654600125 ] ] ] ] } },
{ "type": "Feature", "properties": { "id": null, "CLE_PRIMAI": null, "id-lot": "P7B" }, "geometry": { "type": "MultiPolygon", "coordinates": [ [ [ [ 2.031110288939332, 48.946491389825283 ], [ 2.031202220818493, 48.946448979406043 ], [ 2.031129396518298, 48.946380879969013 ], [ 2.030880027923503, 48.946489171933408 ], [ 2.031289138415601, 48.946871686713465 ], [ 2.031377942954169, 48.946886413356154 ], [ 2.032127790277243, 48.946552277683729 ], [ 2.032048151824785, 48.94650106294651 ], [ 2.031950641712281, 48.946438360659918 ], [ 2.031384856380005, 48.946697438876733 ], [ 2.031110288939332, 48.946491389825283 ] ] ] ] } },
{ "type": "Feature", "properties": { "id": null, "CLE_PRIMAI": null, "id-lot": "P7A" }, "geometry": { "type": "MultiPolygon", "coordinates": [ [ [ [ 2.032414359746943, 48.946037012138014 ], [ 2.032536701949785, 48.946183823576355 ], [ 2.032009557753392, 48.946418723558914 ], [ 2.032180665015823, 48.946528730605884 ], [ 2.032816036986437, 48.946245596336631 ], [ 2.032816039137904, 48.946202156377957 ], [ 2.032498872989955, 48.945997403869022 ], [ 2.032498872989955, 48.945997403869022 ], [ 2.032414359746943, 48.946037012138014 ] ] ] ] } },
{ "type": "Feature", "properties": { "id": null, "CLE_PRIMAI": null, "id-lot": "P7A" }, "geometry": { "type": "MultiPolygon", "coordinates": [ [ [ [ 2.031787085740723, 48.946209821547711 ], [ 2.031877317713017, 48.946143919486033 ], [ 2.031665347469992, 48.946018736679235 ], [ 2.031575117318816, 48.946084640019052 ], [ 2.031787085740723, 48.946209821547711 ] ] ] ] } },
{ "type": "Feature", "properties": { "id": null, "CLE_PRIMAI": null, "id-lot": "P7A" }, "geometry": { "type": "MultiPolygon", "coordinates": [ [ [ [ 2.031887098471186, 48.945876613440831 ], [ 2.03200663745144, 48.945953514897148 ], [ 2.03212507468881, 48.945959716511233 ], [ 2.032195384237407, 48.94591257329845 ], [ 2.032264481685386, 48.945849241085867 ], [ 2.032147466827743, 48.945773939855755 ], [ 2.03203772727678, 48.945750367587806 ], [ 2.031960063201091, 48.945802438416187 ], [ 2.031887098471186, 48.945876613440831 ] ] ] ] } },
{ "type": "Feature", "properties": { "id": null, "CLE_PRIMAI": null, "id-lot": "V1" }, "geometry": { "type": "MultiPolygon", "coordinates": [ [ [ [ 2.029619199370144, 48.944697843707509 ], [ 2.029678330858312, 48.944574710663289 ], [ 2.029597903177953, 48.944558086672359 ], [ 2.029669615887393, 48.944408422200716 ], [ 2.029482090684087, 48.944369661560785 ], [ 2.029351362814628, 48.944642490585331 ], [ 2.029619199370144, 48.944697843707509 ] ] ] ] } },
{ "type": "Feature", "properties": { "id": null, "CLE_PRIMAI": null, "id-lot": "V1" }, "geometry": { "type": "MultiPolygon", "coordinates": [ [ [ [ 2.02914692987646, 48.944592245966184 ], [ 2.029225894116078, 48.944473934419008 ], [ 2.029057288199213, 48.944425717584664 ], [ 2.029415437200418, 48.944148841680473 ], [ 2.029265619601883, 48.944065242994206 ], [ 2.028785744572641, 48.944436216610775 ], [ 2.028806253600402, 48.944494462195401 ], [ 2.02914692987646, 48.944592245966184 ] ] ] ] } },
{ "type": "Feature", "properties": { "id": null, "CLE_PRIMAI": null, "id-lot": "V1" }, "geometry": { "type": "MultiPolygon", "coordinates": [ [ [ [ 2.029923154785962, 48.944327303505254 ], [ 2.029974361898052, 48.944221857917491 ], [ 2.029596955170515, 48.944106822360339 ], [ 2.02952589892271, 48.944207176185095 ], [ 2.029923154785962, 48.944327303505254 ] ] ] ] } },
{ "type": "Feature", "properties": { "id": null, "CLE_PRIMAI": null, "id-lot": "V2" }, "geometry": { "type": "MultiPolygon", "coordinates": [ [ [ [ 2.029852917384372, 48.944304674888848 ], [ 2.030531188426429, 48.944442573273008 ], [ 2.030581017222585, 48.944336848446852 ], [ 2.029904124496463, 48.944199229253265 ], [ 2.029852917384372, 48.944304674888848 ] ] ] ] } },
{ "type": "Feature", "properties": { "id": null, "CLE_PRIMAI": null, "id-lot": "V2" }, "geometry": { "type": "MultiPolygon", "coordinates": [ [ [ [ 2.030172706850866, 48.944793250070937 ], [ 2.030220238832623, 48.944667974444016 ], [ 2.030138501254478, 48.944654497697428 ], [ 2.030205750952712, 48.94451157957063 ], [ 2.030017950590466, 48.944473398013685 ], [ 2.029889330235976, 48.944746869962906 ], [ 2.030172706850866, 48.944793250070937 ] ] ] ] } },
{ "type": "Feature", "properties": { "id": null, "CLE_PRIMAI": null, "id-lot": "V2" }, "geometry": { "type": "MultiPolygon", "coordinates": [ [ [ [ 2.030517511095066, 48.944849683950011 ], [ 2.030595485276297, 48.944815176217503 ], [ 2.030645722583221, 48.944582360040329 ], [ 2.030451038618859, 48.944564298198387 ], [ 2.030394042192115, 48.944829310595246 ], [ 2.030517511095066, 48.944849683950011 ] ] ] ] } },
{ "type": "Feature", "properties": { "id": null, "CLE_PRIMAI": null, "id-lot": "V3" }, "geometry": { "type": "MultiPolygon", "coordinates": [ [ [ [ 2.030348326223832, 48.944191687503789 ], [ 2.030398155019989, 48.944085962146119 ], [ 2.030088391866793, 48.944022983868869 ], [ 2.02986110150433, 48.943953559879148 ], [ 2.029790027818894, 48.944053830147112 ], [ 2.030027672695907, 48.944126495229497 ], [ 2.030348326223832, 48.944191687503789 ] ] ] ] } },
{ "type": "Feature", "properties": { "id": null, "CLE_PRIMAI": null, "id-lot": "V3" }, "geometry": { "type": "MultiPolygon", "coordinates": [ [ [ [ 2.030445340417737, 48.94393452117594 ], [ 2.030521589636676, 48.94383582461176 ], [ 2.030221051011463, 48.943735663763277 ], [ 2.030144801792526, 48.943834360525543 ], [ 2.030445340417737, 48.94393452117594 ] ] ] ] } },
{ "type": "Feature", "properties": { "id": null, "CLE_PRIMAI": null, "id-lot": "V3" }, "geometry": { "type": "MultiPolygon", "coordinates": [ [ [ [ 2.030673167475038, 48.944257731099974 ], [ 2.030746820592181, 48.943915742755209 ], [ 2.030579973924974, 48.943900241785101 ], [ 2.030510121629623, 48.944224582199134 ], [ 2.030673167475038, 48.944257731099974 ] ] ] ] } },
{ "type": "Feature", "properties": { "id": null, "CLE_PRIMAI": null, "id-lot": "V3" }, "geometry": { "type": "MultiPolygon", "coordinates": [ [ [ [ 2.029609304201412, 48.943998913956648 ], [ 2.029929325968437, 48.943750993397963 ], [ 2.029993602464264, 48.943742501988979 ], [ 2.029954836658617, 48.943615915364397 ], [ 2.029824567436536, 48.943633124951496 ], [ 2.029424637982219, 48.943942303358718 ], [ 2.029609304201412, 48.943998913956648 ] ] ] ] } },
{ "type": "Feature", "properties": { "id": null, "CLE_PRIMAI": null, "id-lot": null }, "geometry": { "type": "MultiPolygon", "coordinates": [ [ [ [ 2.030883644133906, 48.943483676743718 ], [ 2.030873226316877, 48.943197843987122 ], [ 2.030749408908701, 48.943199790783872 ], [ 2.030759826725731, 48.943485623529334 ], [ 2.030883644133906, 48.943483676743718 ] ] ] ] } },
{ "type": "Feature", "properties": { "id": null, "CLE_PRIMAI": null, "id-lot": null }, "geometry": { "type": "MultiPolygon", "coordinates": [ [ [ [ 2.030887683564459, 48.943594505649479 ], [ 2.030773096097696, 48.943596307308383 ], [ 2.030293443153111, 48.943439985494528 ], [ 2.030716554120169, 48.943132466330987 ], [ 2.030716554120169, 48.943132466330987 ], [ 2.030523926236143, 48.94305622019143 ], [ 2.030012199883374, 48.943462209044689 ], [ 2.030028941545019, 48.943518898808918 ], [ 2.030816751527137, 48.943781505675013 ], [ 2.030893522220963, 48.943754699414271 ], [ 2.030887683564459, 48.943594505649479 ] ] ] ] } }
]
}
